id,name,url,logo,street,city,postcode,country
1,Edgeblab,http://ebay.co.uk,http://dummyimage.com/244x214.png/dddddd/000000,4329 Mariners Cove Place,Tiaodeng,,China
2,Fatz,https://huffingtonpost.com,http://dummyimage.com/201x102.png/dddddd/000000,1 Springview Trail,Le Chambon-Feugerolles,42505 CEDEX,France
3,Divanoodle,http://prlog.org,http://dummyimage.com/169x179.png/ff4444/ffffff,3 Ruskin Circle,Sacramento,94291,United States
4,Avamba,https://sogou.com,http://dummyimage.com/228x195.png/5fa2dd/ffffff,5 Loftsgordon Junction,Jiangxigou,,China
5,Bubblemix,http://360.cn,http://dummyimage.com/137x121.png/dddddd/000000,8882 Main Court,Bagenalstown,R21,Ireland
6,Thoughtbridge,http://newsvine.com,http://dummyimage.com/132x107.png/cc0000/ffffff,00989 Rieder Circle,Kharkhorin,,Mongolia
7,Photobean,http://huffingtonpost.com,http://dummyimage.com/199x198.png/cc0000/ffffff,3761 Mcguire Hill,Fundong,,Cameroon
8,Jazzy,http://acquirethisname.com,http://dummyimage.com/180x145.png/ff4444/ffffff,02 Portage Center,Orléans,45969 CEDEX 9,France
9,Quinu,http://hc360.com,http://dummyimage.com/136x136.png/5fa2dd/ffffff,52 Annamark Pass,Guinobatan,4503,Philippines
10,Mynte,http://nyu.edu,http://dummyimage.com/151x232.png/5fa2dd/ffffff,71 School Way,Cicuco,132557,Colombia
11,Kaymbo,https://admin.ch,http://dummyimage.com/216x224.png/ff4444/ffffff,513 Buena Vista Plaza,Uyen Hung,,Vietnam
12,Eazzy,https://de.vu,http://dummyimage.com/115x151.png/5fa2dd/ffffff,9 Forest Run Circle,Gaogu,,China
13,Reallinks,https://china.com.cn,http://dummyimage.com/173x136.png/5fa2dd/ffffff,2 Transport Court,Ylämaa,54410,Finland
14,Tagopia,http://biglobe.ne.jp,http://dummyimage.com/117x187.png/cc0000/ffffff,779 Sundown Point,Nîmes,30910 CEDEX 2,France
15,Edgetag,https://godaddy.com,http://dummyimage.com/128x211.png/ff4444/ffffff,40 Starling Parkway,Kepahiang,,Indonesia
16,Yadel,https://wikipedia.org,http://dummyimage.com/168x225.png/dddddd/000000,062 Banding Pass,Bang Kruai,11130,Thailand
17,Eadel,https://sina.com.cn,http://dummyimage.com/224x147.png/cc0000/ffffff,1192 Dwight Hill,Bélabo,,Cameroon
18,Aimbu,https://cyberchimps.com,http://dummyimage.com/208x248.png/ff4444/ffffff,763 Northport Trail,Xinhua,,China
19,Jabbertype,http://nyu.edu,http://dummyimage.com/103x151.png/cc0000/ffffff,2 Shelley Center,Bājitpur,2338,Bangladesh
20,Gabspot,http://facebook.com,http://dummyimage.com/233x171.png/5fa2dd/ffffff,4 Bunker Hill Trail,Sumberjeruk,,Indonesia
21,Janyx,https://multiply.com,http://dummyimage.com/240x244.png/cc0000/ffffff,91 Caliangt Circle,Yifaquan,,China
22,Youspan,http://discovery.com,http://dummyimage.com/182x127.png/dddddd/000000,00 Kingsford Parkway,João Alfredo,55720-000,Brazil
23,Feedmix,https://buzzfeed.com,http://dummyimage.com/135x158.png/cc0000/ffffff,36055 Logan Plaza,Changhan,53120,Thailand
24,Lajo,http://nytimes.com,http://dummyimage.com/175x164.png/cc0000/ffffff,2 Cascade Hill,Maranura,,Peru
25,Brainbox,http://wikimedia.org,http://dummyimage.com/228x242.png/cc0000/ffffff,4 Oakridge Avenue,Kotaagung,,Indonesia
26,Oyondu,http://lycos.com,http://dummyimage.com/212x175.png/ff4444/ffffff,44 Fairfield Alley,Turangi,3382,New Zealand
27,Flipbug,http://usda.gov,http://dummyimage.com/200x246.png/dddddd/000000,01 Mcbride Crossing,Guji,,China
28,Ntags,https://japanpost.jp,http://dummyimage.com/163x134.png/ff4444/ffffff,39434 Bashford Place,Wulin,,China
29,Tagchat,https://amazon.co.uk,http://dummyimage.com/179x124.png/5fa2dd/ffffff,4 Ridge Oak Center,Yuhuazhai,,China
30,Twitterworks,https://bloglovin.com,http://dummyimage.com/198x128.png/cc0000/ffffff,48 Rusk Court,Sampangan,,Indonesia
31,Shufflester,http://salon.com,http://dummyimage.com/240x157.png/ff4444/ffffff,85533 Lunder Road,Las Matas de Farfán,11114,Dominican Republic
32,Digitube,https://geocities.jp,http://dummyimage.com/162x214.png/5fa2dd/ffffff,1 Veith Drive,Bertoua,,Cameroon
33,Voonyx,http://cnbc.com,http://dummyimage.com/113x115.png/5fa2dd/ffffff,9442 Helena Parkway,Baiqi,,China
34,Tekfly,https://trellian.com,http://dummyimage.com/216x196.png/cc0000/ffffff,1 Merrick Hill,West Palm Beach,33405,United States
35,Gevee,http://amazon.com,http://dummyimage.com/121x240.png/dddddd/000000,29721 Schmedeman Hill,Nazarje,3331,Slovenia
36,Meemm,https://mapquest.com,http://dummyimage.com/239x102.png/ff4444/ffffff,63035 3rd Lane,Cachí,4417,Argentina
37,Skyble,https://accuweather.com,http://dummyimage.com/240x175.png/dddddd/000000,846 Red Cloud Avenue,Vel’sk,165155,Russia
38,Abata,http://gizmodo.com,http://dummyimage.com/159x139.png/ff4444/ffffff,466 Declaration Crossing,Gonbad-e Kāvūs,,Iran
39,Realfire,https://networkadvertising.org,http://dummyimage.com/110x115.png/dddddd/000000,05 Welch Court,La Trinidad,2601,Philippines
40,Mydeo,http://sciencedaily.com,http://dummyimage.com/199x214.png/5fa2dd/ffffff,0071 Waywood Point,Dongchen,,China
41,Kwinu,http://prnewswire.com,http://dummyimage.com/209x149.png/dddddd/000000,38 Meadow Ridge Crossing,Farkhah,,Palestinian Territory
42,Edgetag,http://drupal.org,http://dummyimage.com/210x229.png/ff4444/ffffff,37 Starling Way,Noemuti,,Indonesia
43,Fadeo,https://merriam-webster.com,http://dummyimage.com/212x104.png/dddddd/000000,831 Sauthoff Drive,Saxin,,China
44,Dabjam,https://wufoo.com,http://dummyimage.com/117x138.png/ff4444/ffffff,92 3rd Plaza,Ochobo,,Nigeria
45,Jazzy,https://canalblog.com,http://dummyimage.com/241x198.png/5fa2dd/ffffff,6335 Redwing Drive,Divichibazar,,Azerbaijan
46,Zava,https://constantcontact.com,http://dummyimage.com/145x230.png/ff4444/ffffff,2 Hintze Junction,Yanzhou,,China
47,Trunyx,http://weibo.com,http://dummyimage.com/129x131.png/dddddd/000000,5 Drewry Way,Xijiang,,China
48,Oodoo,https://4shared.com,http://dummyimage.com/133x186.png/ff4444/ffffff,6713 Elka Terrace,Svetlyy,634506,Russia
49,Buzzdog,https://chronoengine.com,http://dummyimage.com/132x155.png/dddddd/000000,69 Schlimgen Court,Huangmei,,China
50,Snaptags,http://washingtonpost.com,http://dummyimage.com/166x188.png/dddddd/000000,619 East Junction,Tomioka,999-8524,Japan
51,Zazio,http://forbes.com,http://dummyimage.com/221x217.png/dddddd/000000,5 Messerschmidt Plaza,5 de Mayo,93350,Mexico
52,Jabbercube,https://technorati.com,http://dummyimage.com/235x244.png/cc0000/ffffff,409 Helena Point,Lidköping,531 93,Sweden
53,Rhynoodle,http://virginia.edu,http://dummyimage.com/182x219.png/dddddd/000000,8 Graceland Lane,Jedlová,569 91,Czech Republic
54,Mybuzz,https://dailymotion.com,http://dummyimage.com/189x222.png/5fa2dd/ffffff,1 Paget Drive,Donghe,,China
55,Oloo,https://jugem.jp,http://dummyimage.com/143x103.png/dddddd/000000,99 Anthes Crossing,Yingchengzi,,China
56,Kaymbo,http://walmart.com,http://dummyimage.com/194x187.png/cc0000/ffffff,63253 Oxford Park,Wangcao,,China
57,Photofeed,http://marriott.com,http://dummyimage.com/109x104.png/ff4444/ffffff,0 Macpherson Circle,Szelków,45-559,Poland
58,Blogspan,https://wordpress.org,http://dummyimage.com/129x202.png/5fa2dd/ffffff,76 Moulton Avenue,Cabimas,,Venezuela
59,Vitz,https://accuweather.com,http://dummyimage.com/208x201.png/5fa2dd/ffffff,7 Mayer Circle,Gränna,563 32,Sweden
60,Teklist,http://buzzfeed.com,http://dummyimage.com/183x177.png/ff4444/ffffff,389 Valley Edge Alley,‘Ibrī,,Oman
61,Topicshots,http://acquirethisname.com,http://dummyimage.com/127x176.png/dddddd/000000,566 Texas Way,Nasīrābād,77020,Pakistan
62,Twimbo,http://shutterfly.com,http://dummyimage.com/232x145.png/dddddd/000000,6 Dovetail Parkway,Puerto Castilla,,Honduras
63,Realcube,http://360.cn,http://dummyimage.com/122x225.png/5fa2dd/ffffff,118 Michigan Point,Reinaldes,2525-675,Portugal
64,Vinder,http://webeden.co.uk,http://dummyimage.com/160x173.png/ff4444/ffffff,284 Victoria Pass,Bozoum,,Central African Republic
65,Dynava,https://domainmarket.com,http://dummyimage.com/153x184.png/dddddd/000000,423 Mallard Terrace,Rurrenabaque,,Bolivia
66,Voolia,https://google.es,http://dummyimage.com/200x126.png/cc0000/ffffff,97 Veith Court,Kasungu,,Malawi
67,Teklist,http://microsoft.com,http://dummyimage.com/131x214.png/ff4444/ffffff,7084 Longview Court,Tazemmourt,,Morocco
68,Gabtype,https://netscape.com,http://dummyimage.com/106x179.png/5fa2dd/ffffff,7 Vahlen Place,Tinta,,Peru
69,Quimm,https://icio.us,http://dummyimage.com/234x148.png/cc0000/ffffff,5 Basil Place,Leribe,,Lesotho
70,Meevee,http://ebay.com,http://dummyimage.com/165x111.png/cc0000/ffffff,17168 Nancy Place,Pocsi,,Peru
71,Kazio,http://hc360.com,http://dummyimage.com/200x158.png/ff4444/ffffff,899 Southridge Plaza,Zbraslav,664 84,Czech Republic
72,Mydeo,https://angelfire.com,http://dummyimage.com/229x123.png/cc0000/ffffff,14 Hoffman Plaza,Burgaltay,,Mongolia
73,Jabbersphere,https://virginia.edu,http://dummyimage.com/114x113.png/5fa2dd/ffffff,1436 Meadow Valley Place,Dire Dawa,,Ethiopia
74,Shufflebeat,https://mozilla.org,http://dummyimage.com/206x110.png/dddddd/000000,0528 Bashford Avenue,Ban Dung,41190,Thailand
75,Janyx,https://umich.edu,http://dummyimage.com/201x145.png/cc0000/ffffff,39845 Sycamore Avenue,Mbala,,Zambia
76,Roomm,http://printfriendly.com,http://dummyimage.com/213x199.png/5fa2dd/ffffff,56211 Pankratz Pass,Karpogory,396841,Russia
77,Realmix,https://liveinternet.ru,http://dummyimage.com/221x210.png/cc0000/ffffff,707 Karstens Drive,Santa Rita,,Bolivia
78,Tazzy,http://tripadvisor.com,http://dummyimage.com/190x235.png/cc0000/ffffff,23038 Acker Pass,Silute,99001,Lithuania
79,Thoughtmix,https://unesco.org,http://dummyimage.com/180x116.png/cc0000/ffffff,53 Mariners Cove Way,Xufu,,China
80,Einti,http://deliciousdays.com,http://dummyimage.com/190x196.png/5fa2dd/ffffff,577 Scoville Road,Belén de Umbría,664048,Colombia
81,Yabox,https://mapquest.com,http://dummyimage.com/170x247.png/cc0000/ffffff,472 Stang Crossing,San Eduardo,7207,Philippines
82,Photospace,https://forbes.com,http://dummyimage.com/243x177.png/dddddd/000000,89199 Roxbury Avenue,New Kingston,,Jamaica
83,Vitz,https://mozilla.com,http://dummyimage.com/181x234.png/5fa2dd/ffffff,06547 Shopko Hill,Ochojno,60-222,Poland
84,Zoombeat,http://posterous.com,http://dummyimage.com/196x177.png/cc0000/ffffff,8403 Holmberg Street,Pombal,4850-304,Portugal
85,Realfire,https://delicious.com,http://dummyimage.com/193x232.png/ff4444/ffffff,99 Pierstorff Road,Castlemartyr,H71,Ireland
86,Skalith,http://tuttocitta.it,http://dummyimage.com/237x245.png/cc0000/ffffff,05 Old Shore Hill,Bazzāryah,,Palestinian Territory
87,Feedbug,http://omniture.com,http://dummyimage.com/215x142.png/ff4444/ffffff,40 Kings Terrace,Saint-Jouan-des-Guérets,35435 CEDEX,France
88,Bubblebox,http://dion.ne.jp,http://dummyimage.com/213x201.png/dddddd/000000,0 Knutson Hill,Tisma,,Nicaragua
89,Realcube,http://github.com,http://dummyimage.com/233x202.png/5fa2dd/ffffff,86379 Holmberg Point,Panenggoede,,Indonesia
90,Brainbox,http://oakley.com,http://dummyimage.com/103x153.png/dddddd/000000,84 Redwing Point,Benito Juarez,95749,Mexico
91,Janyx,http://lulu.com,http://dummyimage.com/230x101.png/cc0000/ffffff,71971 Miller Junction,Gegu,,China
92,Brainlounge,http://blogtalkradio.com,http://dummyimage.com/171x233.png/dddddd/000000,9943 Doe Crossing Pass,Quatro Barras,83420-000,Brazil
93,Vidoo,https://xinhuanet.com,http://dummyimage.com/141x129.png/dddddd/000000,4 Sunfield Road,Avignon,84019 CEDEX 1,France
94,Dabfeed,https://macromedia.com,http://dummyimage.com/138x215.png/ff4444/ffffff,10 Mifflin Avenue,Buenavista,81806,Mexico
95,Ozu,http://people.com.cn,http://dummyimage.com/100x240.png/ff4444/ffffff,76 Cottonwood Lane,Rio de Mouro,2635-034,Portugal
96,Jabberbean,http://xinhuanet.com,http://dummyimage.com/187x219.png/dddddd/000000,0434 Derek Way,Češinovo,2333,Macedonia
97,Cogilith,https://pcworld.com,http://dummyimage.com/167x244.png/dddddd/000000,294 Grasskamp Way,Uppsala,753 09,Sweden
98,Twiyo,http://yahoo.co.jp,http://dummyimage.com/192x138.png/ff4444/ffffff,326 Badeau Pass,Rawawilis,,Indonesia
99,Ailane,http://example.com,http://dummyimage.com/186x195.png/ff4444/ffffff,76180 Barby Parkway,Candelaria,3308,Argentina
100,Meembee,https://furl.net,http://dummyimage.com/214x220.png/5fa2dd/ffffff,93328 Raven Plaza,Bořetice,691 08,Czech Republic
101,Zoombeat,http://t-online.de,http://dummyimage.com/247x107.png/ff4444/ffffff,56 Oxford Alley,Kuala Lumpur,50762,Malaysia
102,Youspan,http://linkedin.com,http://dummyimage.com/242x140.png/cc0000/ffffff,9 Mallory Pass,Mértola,7750-321,Portugal
103,Myworks,https://livejournal.com,http://dummyimage.com/213x227.png/cc0000/ffffff,81544 Dexter Point,El Banco,473049,Colombia
104,Twinte,https://quantcast.com,http://dummyimage.com/152x154.png/dddddd/000000,4169 Cordelia Hill,Gąbin,09-530,Poland
105,Fatz,https://microsoft.com,http://dummyimage.com/218x180.png/ff4444/ffffff,0 Tomscot Point,Panacan,5032,Philippines
106,Realcube,https://webeden.co.uk,http://dummyimage.com/245x212.png/ff4444/ffffff,302 Oak Valley Plaza,Concepción,,Paraguay
107,Jaxworks,https://webmd.com,http://dummyimage.com/175x242.png/ff4444/ffffff,4118 Carpenter Center,Ninomiya,929-1811,Japan
108,Fivebridge,http://list-manage.com,http://dummyimage.com/176x116.png/ff4444/ffffff,5 Northland Drive,Greda,44273,Croatia
109,Viva,https://ted.com,http://dummyimage.com/182x120.png/cc0000/ffffff,88167 Fuller Lane,Izobil’nyy,347674,Russia
110,Riffwire,http://over-blog.com,http://dummyimage.com/193x219.png/cc0000/ffffff,7 Mallard Center,Yallahs,,Jamaica
111,Tekfly,http://nifty.com,http://dummyimage.com/153x136.png/ff4444/ffffff,35008 Morrow Center,Ocoyo,,Peru
112,Gigabox,https://g.co,http://dummyimage.com/130x222.png/cc0000/ffffff,98339 Beilfuss Hill,Syktyvkar,167032,Russia
113,Gevee,https://histats.com,http://dummyimage.com/134x102.png/ff4444/ffffff,07 Bunker Hill Park,Hankasalmi,41521,Finland
114,Livetube,http://nifty.com,http://dummyimage.com/126x121.png/dddddd/000000,269 Macpherson Park,Herzliyya,,Israel
115,Bubblebox,http://lulu.com,http://dummyimage.com/131x148.png/5fa2dd/ffffff,874 Elka Drive,Tokushima-shi,779-0312,Japan
116,Gabspot,https://trellian.com,http://dummyimage.com/212x216.png/5fa2dd/ffffff,618 Lotheville Point,Pointe-Noire,,Republic of the Congo
117,Cogidoo,https://e-recht24.de,http://dummyimage.com/227x117.png/dddddd/000000,91305 Center Terrace,Ljubuški,,Bosnia and Herzegovina
118,Thoughtblab,http://liveinternet.ru,http://dummyimage.com/222x159.png/5fa2dd/ffffff,9 Dayton Hill,Pong,56140,Thailand
119,Twitterbeat,http://histats.com,http://dummyimage.com/237x247.png/ff4444/ffffff,72 Barby Crossing,Alor Setar,05552,Malaysia
120,Lajo,http://umich.edu,http://dummyimage.com/188x229.png/ff4444/ffffff,227 Packers Hill,Dongxi,,China
121,Kayveo,http://newsvine.com,http://dummyimage.com/212x127.png/dddddd/000000,27 Larry Circle,Kislyakovskaya,352020,Russia
122,Yamia,http://nbcnews.com,http://dummyimage.com/183x199.png/ff4444/ffffff,8360 Spohn Way,Cibungur,,Indonesia
123,Devcast,https://wikispaces.com,http://dummyimage.com/116x161.png/ff4444/ffffff,048 Eastlawn Way,Montemor-o-Velho,3140-253,Portugal
124,Blogtag,http://engadget.com,http://dummyimage.com/185x140.png/dddddd/000000,8663 Ohio Alley,Donghai,,China
125,Tanoodle,https://sohu.com,http://dummyimage.com/239x175.png/ff4444/ffffff,19 Almo Avenue,Tolotangga,,Indonesia
126,Yotz,http://springer.com,http://dummyimage.com/132x156.png/ff4444/ffffff,61126 Pond Point,El Paso,88541,United States
127,Topicshots,http://csmonitor.com,http://dummyimage.com/221x163.png/5fa2dd/ffffff,67 Redwing Place,Mlalo,,Tanzania
128,Yozio,https://aol.com,http://dummyimage.com/128x235.png/5fa2dd/ffffff,9407 Mendota Alley,Pancur,,Indonesia
129,Minyx,https://homestead.com,http://dummyimage.com/206x212.png/ff4444/ffffff,5 Sunfield Parkway,Beishan,,China
130,Twitternation,http://china.com.cn,http://dummyimage.com/175x204.png/ff4444/ffffff,2713 American Ash Avenue,Gudurica,,Serbia
131,Zoonoodle,http://adobe.com,http://dummyimage.com/198x129.png/ff4444/ffffff,92195 Clyde Gallagher Road,Oktyabr’skiy,452607,Russia
132,Voonyx,http://pen.io,http://dummyimage.com/169x221.png/5fa2dd/ffffff,49139 Transport Alley,Huancaray,,Peru
133,Vipe,http://wikispaces.com,http://dummyimage.com/131x205.png/cc0000/ffffff,7 Lukken Road,Dębowa Łąka,87-207,Poland
134,Kazu,http://geocities.jp,http://dummyimage.com/103x179.png/5fa2dd/ffffff,5939 Barnett Avenue,Lousado,4760-606,Portugal
135,Dynabox,https://vistaprint.com,http://dummyimage.com/140x242.png/ff4444/ffffff,718 Jenna Alley,Quimper,29551 CEDEX 9,France
136,Oyope,http://cmu.edu,http://dummyimage.com/189x199.png/dddddd/000000,1 Sugar Place,Belomorsk,186509,Russia
137,Livefish,http://facebook.com,http://dummyimage.com/222x207.png/ff4444/ffffff,6623 Bultman Road,Jarry,97188 CEDEX,Guadeloupe
138,Jabberbean,https://homestead.com,http://dummyimage.com/206x143.png/dddddd/000000,8987 Village Plaza,Lagayan,2824,Philippines
139,Fivechat,https://nsw.gov.au,http://dummyimage.com/121x250.png/5fa2dd/ffffff,9436 Glacier Hill Pass,Pomiechówek,05-180,Poland
140,Twitterbridge,https://deliciousdays.com,http://dummyimage.com/248x127.png/ff4444/ffffff,1 Ohio Road,Los Mangos,93228,Mexico
141,Brightdog,http://163.com,http://dummyimage.com/155x240.png/ff4444/ffffff,46398 Schurz Place,Taihe,,China
142,Eire,http://addtoany.com,http://dummyimage.com/118x247.png/5fa2dd/ffffff,24089 Huxley Place,Miami,33129,United States
143,Omba,http://ycombinator.com,http://dummyimage.com/129x142.png/ff4444/ffffff,92042 Northport Place,Yafan,,China
144,Yadel,http://symantec.com,http://dummyimage.com/152x103.png/cc0000/ffffff,5216 Meadow Ridge Way,Sioguí Arriba,,Panama
145,Realpoint,http://deviantart.com,http://dummyimage.com/184x118.png/dddddd/000000,2 Stone Corner Alley,Magdaleno Aguilar,89355,Mexico
146,Yakidoo,http://whitehouse.gov,http://dummyimage.com/207x172.png/dddddd/000000,3 Grasskamp Road,Kalengwa,,Zambia
147,Flipstorm,https://surveymonkey.com,http://dummyimage.com/180x203.png/5fa2dd/ffffff,38 Browning Court,Qagan Obo,,China
148,Yodoo,https://shinystat.com,http://dummyimage.com/237x229.png/5fa2dd/ffffff,29004 Washington Place,Nova Praha,,Ukraine
149,Demizz,http://wisc.edu,http://dummyimage.com/189x146.png/dddddd/000000,0761 Laurel Junction,Ostružnica,,Serbia
150,Feedfire,http://ehow.com,http://dummyimage.com/189x177.png/5fa2dd/ffffff,4 Pond Trail,Xinghua,,China
151,Eimbee,http://simplemachines.org,http://dummyimage.com/113x187.png/5fa2dd/ffffff,5 Esch Alley,Milano,20125,Italy
152,Voolith,https://ihg.com,http://dummyimage.com/247x106.png/5fa2dd/ffffff,957 Center Court,Cantuk Kidul,,Indonesia
153,Jayo,https://geocities.com,http://dummyimage.com/156x218.png/dddddd/000000,97480 School Point,Jinchang,,China
154,Photobean,https://bloglovin.com,http://dummyimage.com/119x215.png/5fa2dd/ffffff,592 Hoffman Parkway,Tongbang,,Indonesia
155,Plajo,http://jimdo.com,http://dummyimage.com/203x200.png/dddddd/000000,7687 Reindahl Hill,Dongdai,,China
156,Meejo,https://shop-pro.jp,http://dummyimage.com/105x176.png/5fa2dd/ffffff,15422 Lindbergh Hill,Bršadin,32222,Croatia
157,Zoomcast,https://washingtonpost.com,http://dummyimage.com/134x167.png/ff4444/ffffff,4 Goodland Way,Federal,3180,Argentina
158,Rhybox,http://t-online.de,http://dummyimage.com/244x242.png/cc0000/ffffff,4 Almo Center,Longyuanba,,China
159,Twimm,https://youtube.com,http://dummyimage.com/155x167.png/dddddd/000000,74 Knutson Way,Ush-Tyube,,Kazakhstan
160,Eamia,http://opera.com,http://dummyimage.com/249x235.png/5fa2dd/ffffff,5160 Cherokee Court,Kanluran,4107,Philippines
161,Digitube,http://mac.com,http://dummyimage.com/157x119.png/dddddd/000000,796 Morningstar Lane,Kuta,,Indonesia
162,Lazz,https://springer.com,http://dummyimage.com/122x194.png/cc0000/ffffff,28 Village Park,Lemery,5043,Philippines
163,Mybuzz,http://freewebs.com,http://dummyimage.com/139x166.png/5fa2dd/ffffff,76489 Paget Point,Zhukeng,,China
164,Eare,https://jiathis.com,http://dummyimage.com/218x147.png/5fa2dd/ffffff,6 Blue Bill Park Junction,Dachong,,China
165,Dablist,http://pagesperso-orange.fr,http://dummyimage.com/222x198.png/5fa2dd/ffffff,135 Division Center,Naxos,,Greece
166,Mydeo,https://bbb.org,http://dummyimage.com/212x191.png/cc0000/ffffff,31 Esch Road,Kerrouchen,,Morocco
167,Gigabox,https://sphinn.com,http://dummyimage.com/145x159.png/ff4444/ffffff,606 Annamark Drive,Al Qurayn,,Egypt
168,Wordify,http://feedburner.com,http://dummyimage.com/145x235.png/5fa2dd/ffffff,6570 Portage Road,Bzenec,696 81,Czech Republic
169,Centizu,https://cmu.edu,http://dummyimage.com/119x195.png/5fa2dd/ffffff,01895 Northfield Court,Jönköping,551 11,Sweden
170,Quaxo,https://about.me,http://dummyimage.com/227x158.png/5fa2dd/ffffff,85138 Karstens Point,Shanga,,Nigeria
171,Kwilith,http://prweb.com,http://dummyimage.com/180x100.png/ff4444/ffffff,692 Meadow Vale Court,Krajan,,Indonesia
172,Divanoodle,https://goodreads.com,http://dummyimage.com/134x114.png/dddddd/000000,0325 Redwing Court,Wuppertal,42285,Germany
173,Topicware,https://sitemeter.com,http://dummyimage.com/244x192.png/5fa2dd/ffffff,3857 3rd Avenue,Kedungsumurkrajan,,Indonesia
174,Aibox,http://cafepress.com,http://dummyimage.com/134x176.png/cc0000/ffffff,59 Center Circle,Gongchang,,China
175,Lazzy,https://mail.ru,http://dummyimage.com/200x216.png/5fa2dd/ffffff,6 Magdeline Pass,Singabarong,,Indonesia
176,Photospace,http://deviantart.com,http://dummyimage.com/232x166.png/ff4444/ffffff,0 Scoville Pass,Sing Buri,16150,Thailand
177,Mydeo,http://smugmug.com,http://dummyimage.com/249x238.png/ff4444/ffffff,3302 Independence Pass,Sete Cidades,9555-197,Portugal
178,Devify,https://dion.ne.jp,http://dummyimage.com/167x246.png/5fa2dd/ffffff,13 Southridge Drive,Corticeiro de Baixo,3070-635,Portugal
179,Skippad,http://noaa.gov,http://dummyimage.com/244x194.png/dddddd/000000,7 Heffernan Trail,Rio Grande,96200-000,Brazil
180,Zoomlounge,https://digg.com,http://dummyimage.com/157x231.png/cc0000/ffffff,71 Russell Point,Alurbulu,,Indonesia
181,Dazzlesphere,https://scientificamerican.com,http://dummyimage.com/221x110.png/5fa2dd/ffffff,85045 Clove Court,Krasnoye,399345,Russia
182,Wordware,http://blogspot.com,http://dummyimage.com/231x227.png/cc0000/ffffff,035 Farwell Way,Santa Catalina,,Venezuela
183,Realcube,http://mail.ru,http://dummyimage.com/126x143.png/cc0000/ffffff,5534 Kedzie Terrace,Bunirasa,,Indonesia
184,Twiyo,https://mediafire.com,http://dummyimage.com/228x217.png/ff4444/ffffff,8414 Meadow Vale Lane,Huitán,09015,Guatemala
185,Shufflester,https://washingtonpost.com,http://dummyimage.com/148x176.png/dddddd/000000,30 Hovde Crossing,Cirangrang,,Indonesia
186,Livetube,https://mayoclinic.com,http://dummyimage.com/104x202.png/ff4444/ffffff,36432 Kenwood Drive,Ibara,901-1401,Japan
187,Zooveo,https://tuttocitta.it,http://dummyimage.com/160x200.png/dddddd/000000,3599 Main Alley,Cabaret,,Haiti
188,Yacero,https://a8.net,http://dummyimage.com/231x180.png/cc0000/ffffff,05 American Lane,Chadong,,China
189,Skyndu,http://wunderground.com,http://dummyimage.com/118x206.png/dddddd/000000,23170 Monica Drive,Morinville,T8R,Canada
190,Jetwire,http://walmart.com,http://dummyimage.com/219x219.png/5fa2dd/ffffff,04628 Upham Junction,Batang,,Indonesia
191,Skibox,http://imgur.com,http://dummyimage.com/204x156.png/5fa2dd/ffffff,31 Del Mar Place,Sunne,686 91,Sweden
192,Jabbercube,https://zdnet.com,http://dummyimage.com/224x228.png/ff4444/ffffff,00 Pond Avenue,Habartov,357 09,Czech Republic
193,Jayo,https://comsenz.com,http://dummyimage.com/135x110.png/ff4444/ffffff,0677 Service Lane,Qingshan,,China
194,Eayo,http://fotki.com,http://dummyimage.com/119x186.png/dddddd/000000,1 Scott Point,Zinder,,Niger
195,Mynte,http://microsoft.com,http://dummyimage.com/122x222.png/cc0000/ffffff,2021 Eagle Crest Way,Santo Domingo Este,11806,Dominican Republic
196,Realcube,http://facebook.com,http://dummyimage.com/134x114.png/cc0000/ffffff,6 Red Cloud Point,Taclobo,2810,Philippines
197,Fadeo,http://foxnews.com,http://dummyimage.com/233x198.png/ff4444/ffffff,2502 High Crossing Point,Montinho,4625-608,Portugal
198,Skiba,http://spotify.com,http://dummyimage.com/190x115.png/5fa2dd/ffffff,24490 Main Alley,Verkhnya Syrovatka,,Ukraine
199,Twitterwire,http://vkontakte.ru,http://dummyimage.com/139x206.png/5fa2dd/ffffff,179 Mesta Drive,Bécancour,G9H,Canada
200,Eire,http://google.com.hk,http://dummyimage.com/175x139.png/5fa2dd/ffffff,41 Summit Court,Gunungtua,,Indonesia
201,Twitterlist,https://diigo.com,http://dummyimage.com/110x194.png/ff4444/ffffff,8 Hintze Park,Wanxian,,China
202,Topdrive,https://facebook.com,http://dummyimage.com/188x211.png/5fa2dd/ffffff,8020 Fordem Pass,Cipaku,,Indonesia
203,Devcast,https://pen.io,http://dummyimage.com/217x190.png/5fa2dd/ffffff,626 Dovetail Center,Lian’an,,China
204,LiveZ,http://eventbrite.com,http://dummyimage.com/136x103.png/5fa2dd/ffffff,301 Kings Crossing,Marovoay,,Madagascar
205,Yotz,http://harvard.edu,http://dummyimage.com/183x129.png/ff4444/ffffff,9 Fremont Hill,Bilopillya,,Ukraine
206,Aivee,http://nydailynews.com,http://dummyimage.com/133x103.png/cc0000/ffffff,3506 Clemons Junction,Gālīkesh,,Iran
207,Mydeo,http://naver.com,http://dummyimage.com/236x169.png/ff4444/ffffff,6 Cardinal Pass,Pallasovka,404264,Russia
208,Brainverse,https://reference.com,http://dummyimage.com/216x225.png/dddddd/000000,893 South Crossing,Prachatice,383 01,Czech Republic
209,Linkbridge,http://istockphoto.com,http://dummyimage.com/148x165.png/ff4444/ffffff,30 2nd Place,Kota Bharu,15540,Malaysia
210,Youbridge,https://dailymail.co.uk,http://dummyimage.com/202x184.png/cc0000/ffffff,79541 Larry Lane,Pribrezhnyy,624620,Russia
211,Twitterworks,https://ucsd.edu,http://dummyimage.com/213x119.png/cc0000/ffffff,95445 Service Terrace,Qingxi,,China
212,Devshare,https://indiegogo.com,http://dummyimage.com/235x168.png/ff4444/ffffff,39516 Kensington Circle,Rochester,14614,United States
213,Flashpoint,http://newsvine.com,http://dummyimage.com/147x167.png/dddddd/000000,72319 Tomscot Hill,Xiaping,,China
214,Ozu,https://blogtalkradio.com,http://dummyimage.com/209x195.png/ff4444/ffffff,91909 Riverside Road,San Roque,6415,Philippines
215,Jabbertype,http://hc360.com,http://dummyimage.com/184x129.png/ff4444/ffffff,65 Scott Parkway,Magdalena,4007,Philippines
216,Eadel,http://over-blog.com,http://dummyimage.com/143x107.png/dddddd/000000,9009 Bonner Lane,Mene de Mauroa,,Venezuela
217,Jabbersphere,http://epa.gov,http://dummyimage.com/182x109.png/5fa2dd/ffffff,79 Waxwing Place,Fedorovka,,Kazakhstan
218,Trupe,http://bbb.org,http://dummyimage.com/136x164.png/ff4444/ffffff,65856 Crownhardt Alley,Shanhou,,China
219,Yodoo,https://utexas.edu,http://dummyimage.com/233x250.png/cc0000/ffffff,36 Scofield Trail,Montpellier,34064 CEDEX 2,France
220,Zoonoodle,https://geocities.jp,http://dummyimage.com/200x239.png/5fa2dd/ffffff,6 Ridge Oak Pass,Sabnie,08-331,Poland
221,Yodoo,https://pcworld.com,http://dummyimage.com/200x184.png/dddddd/000000,52 Southridge Trail,São Sepé,97340-000,Brazil
222,Tagfeed,https://printfriendly.com,http://dummyimage.com/182x230.png/ff4444/ffffff,439 Granby Avenue,Narva,,Estonia
223,Quimba,https://storify.com,http://dummyimage.com/234x242.png/5fa2dd/ffffff,967 Stoughton Place,Liufang,,China
224,Trudeo,https://mapquest.com,http://dummyimage.com/126x149.png/ff4444/ffffff,5 Tennessee Crossing,Log,403060,Russia
225,Tagpad,https://businessweek.com,http://dummyimage.com/166x115.png/5fa2dd/ffffff,3888 Starling Junction,Glyadyanskoye,641400,Russia
226,Skajo,http://slideshare.net,http://dummyimage.com/109x121.png/dddddd/000000,38177 Dawn Junction,Arıqıran,,Azerbaijan
227,Thoughtblab,https://linkedin.com,http://dummyimage.com/100x149.png/5fa2dd/ffffff,5292 Rockefeller Court,Tegarenkrajan,,Indonesia
228,Thoughtmix,https://samsung.com,http://dummyimage.com/198x237.png/cc0000/ffffff,73 Brentwood Parkway,Novogornyy,456796,Russia
229,Devbug,https://slideshare.net,http://dummyimage.com/249x173.png/5fa2dd/ffffff,9820 Jackson Pass,Żółkiewka,22-335,Poland
230,Blogspan,https://friendfeed.com,http://dummyimage.com/200x205.png/dddddd/000000,49567 Sunfield Drive,Tres Arroyos,6550,Argentina
231,Rhyloo,http://japanpost.jp,http://dummyimage.com/193x168.png/dddddd/000000,11 Wayridge Circle,San Diego,30302,Costa Rica
232,Gigashots,https://amazon.co.jp,http://dummyimage.com/143x161.png/ff4444/ffffff,4736 Susan Terrace,Khafizan,,Afghanistan
233,Digitube,http://arizona.edu,http://dummyimage.com/232x160.png/cc0000/ffffff,95538 Rowland Court,Canindé,62700-000,Brazil
234,Thoughtbeat,http://surveymonkey.com,http://dummyimage.com/134x139.png/ff4444/ffffff,5196 Ridge Oak Street,Sundsvall,851 06,Sweden
235,Fatz,https://deliciousdays.com,http://dummyimage.com/118x240.png/5fa2dd/ffffff,1 Granby Way,Liujiagou,,China
236,Feedbug,http://cnn.com,http://dummyimage.com/177x132.png/dddddd/000000,96847 West Plaza,Karsin,83-440,Poland
237,Browsecat,http://behance.net,http://dummyimage.com/210x226.png/5fa2dd/ffffff,87780 Ronald Regan Point,Tinabogan,,Indonesia
238,Topiczoom,https://livejournal.com,http://dummyimage.com/109x230.png/ff4444/ffffff,250 Washington Circle,Benito Juarez,29120,Mexico
239,Mydo,http://nhs.uk,http://dummyimage.com/237x102.png/5fa2dd/ffffff,592 Tony Hill,San José de Feliciano,3187,Argentina
240,Twitterwire,https://kickstarter.com,http://dummyimage.com/198x155.png/5fa2dd/ffffff,875 Lakewood Avenue,Kuanghe,,China
241,Mita,http://google.com.br,http://dummyimage.com/124x159.png/cc0000/ffffff,99 Carioca Street,Liugong,,China
242,Edgewire,https://harvard.edu,http://dummyimage.com/132x144.png/dddddd/000000,383 Sloan Trail,Nizhnyaya Maktama,423440,Russia
243,Thoughtstorm,https://woothemes.com,http://dummyimage.com/207x129.png/ff4444/ffffff,35 Chinook Court,Tsagaan-Olom,,Mongolia
244,Vitz,http://imdb.com,http://dummyimage.com/250x156.png/5fa2dd/ffffff,99 Hoard Terrace,Toyonaka,771-0217,Japan
245,Mydeo,http://apple.com,http://dummyimage.com/105x134.png/ff4444/ffffff,38 Sugar Trail,Victoria,VCT,Malta
246,Gigashots,https://gnu.org,http://dummyimage.com/137x158.png/cc0000/ffffff,4 Moose Pass,Hanchang,,China
247,Chatterpoint,http://bbb.org,http://dummyimage.com/108x150.png/ff4444/ffffff,08 Red Cloud Plaza,Barreiros,55560-000,Brazil
248,Skiptube,http://zimbio.com,http://dummyimage.com/119x227.png/5fa2dd/ffffff,5516 Buhler Parkway,Lamalera,,Indonesia
249,Skinte,http://digg.com,http://dummyimage.com/135x130.png/5fa2dd/ffffff,96 Shasta Avenue,Vol’no-Nadezhdinskoye,238603,Russia
250,Livetube,https://slideshare.net,http://dummyimage.com/132x234.png/5fa2dd/ffffff,0 Mcbride Junction,Grati Satu,,Indonesia
251,Einti,https://i2i.jp,http://dummyimage.com/218x247.png/5fa2dd/ffffff,71 Roxbury Trail,Metsovo,,Greece
252,Skyba,https://plala.or.jp,http://dummyimage.com/244x185.png/cc0000/ffffff,05850 Stuart Place,Forquilhinha,88850-000,Brazil
253,Browsetype,https://tiny.cc,http://dummyimage.com/199x151.png/cc0000/ffffff,4 Bunker Hill Park,Vallentuna,186 96,Sweden
254,Blogspan,https://narod.ru,http://dummyimage.com/181x210.png/dddddd/000000,5 Manitowish Place,Takahama,880-2215,Japan
255,Yozio,http://cornell.edu,http://dummyimage.com/247x182.png/dddddd/000000,3549 Springview Trail,Sipe Sipe,,Bolivia
256,Brightdog,http://home.pl,http://dummyimage.com/196x194.png/dddddd/000000,2497 Lake View Point,Qiaozi,,China
257,Dazzlesphere,http://sciencedirect.com,http://dummyimage.com/191x116.png/5fa2dd/ffffff,8 Hermina Plaza,Saint-Jérôme,J7Z,Canada
258,Oba,https://redcross.org,http://dummyimage.com/112x230.png/5fa2dd/ffffff,7 Monica Center,Thị Trấn Tủa Chùa,,Vietnam
259,Tagopia,https://imageshack.us,http://dummyimage.com/214x164.png/5fa2dd/ffffff,13 Loeprich Way,Cabudare,,Venezuela
260,Skippad,http://istockphoto.com,http://dummyimage.com/180x104.png/dddddd/000000,7 Monica Point,Nuevo Emperador,,Panama
261,Thoughtstorm,http://samsung.com,http://dummyimage.com/229x101.png/5fa2dd/ffffff,93 Hintze Terrace,Stěbořice,747 51,Czech Republic
262,Tagtune,http://qq.com,http://dummyimage.com/130x173.png/ff4444/ffffff,25933 Hauk Street,Luján,6700,Argentina
263,Quatz,http://nba.com,http://dummyimage.com/183x248.png/ff4444/ffffff,9083 Lukken Place,Gävle,801 33,Sweden
264,Dynava,http://newsvine.com,http://dummyimage.com/147x201.png/ff4444/ffffff,149 Hanson Drive,New York City,10060,United States
265,Kwimbee,http://yandex.ru,http://dummyimage.com/122x131.png/ff4444/ffffff,58935 Shoshone Place,Ulcinj,,Montenegro
266,Fivechat,http://example.com,http://dummyimage.com/163x250.png/5fa2dd/ffffff,6987 Lien Hill,Brocēni,,Latvia
267,Jaxworks,https://nyu.edu,http://dummyimage.com/178x243.png/dddddd/000000,8162 Mesta Point,Suai,,East Timor
268,Dazzlesphere,https://imageshack.us,http://dummyimage.com/130x191.png/dddddd/000000,689 Duke Alley,Vřesina,747 20,Czech Republic
269,Edgeblab,http://networksolutions.com,http://dummyimage.com/207x246.png/cc0000/ffffff,4 Anthes Circle,Kongsvinger,2205,Norway
270,Browsecat,http://cargocollective.com,http://dummyimage.com/160x163.png/dddddd/000000,92307 Hudson Crossing,Wushi,,China
271,Centimia,http://squidoo.com,http://dummyimage.com/143x200.png/dddddd/000000,67935 Columbus Terrace,Xiangyun,,China
272,Babblestorm,http://ehow.com,http://dummyimage.com/243x206.png/ff4444/ffffff,7057 Helena Lane,Leubatang,,Indonesia
273,Zoonder,http://discovery.com,http://dummyimage.com/146x201.png/dddddd/000000,0 Duke Junction,Cela,2440-153,Portugal
274,Livefish,https://scribd.com,http://dummyimage.com/178x160.png/ff4444/ffffff,2 Cordelia Terrace,Nkandla,3859,South Africa
275,Feedspan,http://pcworld.com,http://dummyimage.com/228x102.png/5fa2dd/ffffff,28368 Fuller Drive,Kórnik,62-035,Poland
276,Avamba,http://canalblog.com,http://dummyimage.com/177x148.png/cc0000/ffffff,2624 Jana Pass,Hepu,,China
277,JumpXS,https://nsw.gov.au,http://dummyimage.com/115x108.png/cc0000/ffffff,6 Russell Trail,Dok Kham Tai,56120,Thailand
278,Mynte,https://bloglines.com,http://dummyimage.com/150x229.png/5fa2dd/ffffff,193 Mosinee Center,Yasothon,35000,Thailand
279,Livetube,https://ow.ly,http://dummyimage.com/145x225.png/5fa2dd/ffffff,47838 Maryland Alley,Além,4720-551,Portugal
280,Livepath,http://imdb.com,http://dummyimage.com/123x173.png/5fa2dd/ffffff,9 Old Gate Park,København,1349,Denmark
281,Quimm,http://nih.gov,http://dummyimage.com/210x179.png/ff4444/ffffff,12 Debra Avenue,Elvas,7350-005,Portugal
282,Brainbox,http://sohu.com,http://dummyimage.com/140x206.png/5fa2dd/ffffff,5 Packers Hill,Mirów,53-402,Poland
283,Bluezoom,https://altervista.org,http://dummyimage.com/220x229.png/5fa2dd/ffffff,5 Spohn Terrace,Dobryatino,601580,Russia
284,Eire,https://ning.com,http://dummyimage.com/223x172.png/dddddd/000000,80745 Glendale Road,Borucin,47-451,Poland
285,Janyx,http://shinystat.com,http://dummyimage.com/213x238.png/cc0000/ffffff,34 Holmberg Hill,Pingding,,China
286,Skivee,http://army.mil,http://dummyimage.com/241x203.png/ff4444/ffffff,74897 Glendale Trail,Sembalunbumbung,,Indonesia
287,Ooba,https://dedecms.com,http://dummyimage.com/211x143.png/ff4444/ffffff,62709 Crest Line Alley,Leon Postigo,6305,Philippines
288,Zoovu,http://zimbio.com,http://dummyimage.com/196x224.png/5fa2dd/ffffff,76428 Bartillon Park,Creil,60922 CEDEX 9,France
289,Yacero,https://liveinternet.ru,http://dummyimage.com/226x212.png/dddddd/000000,60 Monica Way,Tigaon,4420,Philippines
290,Flipbug,https://oracle.com,http://dummyimage.com/123x183.png/cc0000/ffffff,69449 Dapin Plaza,Maki,959-1748,Japan
291,Feedmix,http://yahoo.co.jp,http://dummyimage.com/119x206.png/5fa2dd/ffffff,9735 Pankratz Plaza,Bridgetown,,Barbados
292,Demimbu,https://dailymotion.com,http://dummyimage.com/205x214.png/ff4444/ffffff,76 Stang Junction,Potchefstroom,2538,South Africa
293,Rhycero,https://hostgator.com,http://dummyimage.com/145x223.png/ff4444/ffffff,11 Elgar Alley,Qasr Abu Hadi,,Libya
294,Bluejam,https://github.com,http://dummyimage.com/250x212.png/cc0000/ffffff,969 Anhalt Drive,Muyinga,,Burundi
295,Gigazoom,http://earthlink.net,http://dummyimage.com/112x122.png/5fa2dd/ffffff,0105 Cottonwood Alley,Orvalho,6185-302,Portugal
296,Agimba,https://google.de,http://dummyimage.com/172x100.png/ff4444/ffffff,21 Cardinal Place,Kuala Lumpur,59800,Malaysia
297,Photobug,https://4shared.com,http://dummyimage.com/184x235.png/dddddd/000000,3395 Lotheville Center,São Bernardo do Campo,09700-000,Brazil
298,Leenti,http://usda.gov,http://dummyimage.com/222x147.png/dddddd/000000,4046 Morrow Parkway,Karano,,Indonesia
299,Realfire,https://stanford.edu,http://dummyimage.com/137x227.png/cc0000/ffffff,66 Clyde Gallagher Street,Las Cruces,88006,United States
300,Jabbersphere,http://163.com,http://dummyimage.com/107x191.png/ff4444/ffffff,8 Luster Park,Grenoble,38051 CEDEX 9,France
301,Midel,http://printfriendly.com,http://dummyimage.com/120x158.png/dddddd/000000,692 Jay Drive,Quvasoy,,Uzbekistan
302,Eayo,http://sciencedirect.com,http://dummyimage.com/193x206.png/5fa2dd/ffffff,6 Monica Street,Timaru,7940,New Zealand
303,Camido,https://epa.gov,http://dummyimage.com/105x143.png/5fa2dd/ffffff,0 Luster Plaza,Áno Sýros,,Greece
304,Voonte,https://myspace.com,http://dummyimage.com/217x121.png/5fa2dd/ffffff,2245 Schiller Road,Liquica,,East Timor
305,Kwimbee,http://gov.uk,http://dummyimage.com/235x229.png/dddddd/000000,3998 Vernon Pass,Balzar,,Ecuador
306,Kwilith,http://blog.com,http://dummyimage.com/158x207.png/dddddd/000000,469 Golf Course Point,Uptar,685918,Russia
307,Wikido,http://t.co,http://dummyimage.com/123x201.png/ff4444/ffffff,65 Waubesa Pass,Kakegawa,436-0079,Japan
308,Aibox,http://fema.gov,http://dummyimage.com/124x127.png/dddddd/000000,35435 Gulseth Lane,Panyam,,Nigeria
309,Skalith,http://topsy.com,http://dummyimage.com/237x207.png/5fa2dd/ffffff,6328 Del Sol Alley,Cholet,49321 CEDEX,France
310,Blogtag,http://xinhuanet.com,http://dummyimage.com/116x165.png/ff4444/ffffff,4 Washington Pass,Harstad,9498,Norway
311,Devpulse,http://angelfire.com,http://dummyimage.com/230x149.png/5fa2dd/ffffff,4 Arrowood Center,Dengyue,,China
312,LiveZ,http://upenn.edu,http://dummyimage.com/115x180.png/dddddd/000000,0292 Nobel Terrace,Dzerzhinsk,607614,Russia
313,Edgeify,https://sbwire.com,http://dummyimage.com/201x170.png/cc0000/ffffff,3747 Cascade Place,København,1370,Denmark
314,Eidel,http://parallels.com,http://dummyimage.com/154x107.png/5fa2dd/ffffff,027 Jana Trail,Ciudad del Este,,Paraguay
315,Fadeo,http://4shared.com,http://dummyimage.com/171x248.png/cc0000/ffffff,885 Lakeland Parkway,Gap,05004 CEDEX,France
316,Topicblab,http://histats.com,http://dummyimage.com/161x231.png/ff4444/ffffff,37942 Independence Alley,Mūḩ Ḩasan,,Syria
317,Skimia,https://forbes.com,http://dummyimage.com/129x203.png/cc0000/ffffff,3036 Aberg Alley,Yangdi,,China
318,Brightdog,https://spotify.com,http://dummyimage.com/173x170.png/ff4444/ffffff,9 Dexter Avenue,Ağdaş,,Azerbaijan
319,Oba,http://pagesperso-orange.fr,http://dummyimage.com/105x204.png/ff4444/ffffff,5614 American Ash Drive,Kamiiso,501-0531,Japan
320,Jaxworks,http://pinterest.com,http://dummyimage.com/100x221.png/5fa2dd/ffffff,57634 Superior Point,Fukadale,,Indonesia
321,Latz,https://123-reg.co.uk,http://dummyimage.com/226x195.png/cc0000/ffffff,1976 Monument Junction,Energeticheskiy,,Kazakhstan
322,Twitterbeat,http://biglobe.ne.jp,http://dummyimage.com/137x183.png/cc0000/ffffff,636 Grim Junction,Zhen’an,,China
323,Jetpulse,https://scientificamerican.com,http://dummyimage.com/211x236.png/cc0000/ffffff,3 Riverside Point,Aucayacu,,Peru
324,Topicblab,https://sbwire.com,http://dummyimage.com/245x206.png/dddddd/000000,759 Heffernan Center,Cabinteely,D04,Ireland
325,Meetz,https://merriam-webster.com,http://dummyimage.com/197x153.png/cc0000/ffffff,56037 Hansons Avenue,Kafr Nubl,,Syria
326,Kimia,http://salon.com,http://dummyimage.com/124x216.png/dddddd/000000,23 Menomonie Junction,Las Carreras,,Bolivia
327,Bluezoom,https://wikia.com,http://dummyimage.com/163x118.png/5fa2dd/ffffff,94 Division Court,Moyo,,Uganda
328,Jatri,http://berkeley.edu,http://dummyimage.com/234x182.png/5fa2dd/ffffff,8692 Magdeline Avenue,Pelem,,Indonesia
329,Bluejam,http://eepurl.com,http://dummyimage.com/191x213.png/cc0000/ffffff,1990 Hayes Plaza,Vologda,160034,Russia
330,Vimbo,http://list-manage.com,http://dummyimage.com/137x200.png/5fa2dd/ffffff,8 Arrowood Center,Kuhmo,88901,Finland
331,Edgetag,https://hibu.com,http://dummyimage.com/157x220.png/cc0000/ffffff,2 Bellgrove Street,Lamalewar,,Indonesia
332,Dabtype,https://huffingtonpost.com,http://dummyimage.com/109x249.png/cc0000/ffffff,93 Westerfield Way,Buy,157008,Russia
333,Tagopia,http://usda.gov,http://dummyimage.com/177x225.png/5fa2dd/ffffff,0 Little Fleur Point,Nurabelen,,Indonesia
334,Photojam,https://rakuten.co.jp,http://dummyimage.com/103x130.png/dddddd/000000,89 Stang Street,Yongfeng,,China
335,Rhynyx,http://t-online.de,http://dummyimage.com/210x239.png/ff4444/ffffff,05437 Jenifer Lane,De la Paz,6337,Philippines
336,Fanoodle,https://latimes.com,http://dummyimage.com/148x131.png/dddddd/000000,6 Fordem Avenue,Colorado Springs,80945,United States
337,Eidel,http://biglobe.ne.jp,http://dummyimage.com/104x107.png/5fa2dd/ffffff,85402 Monica Junction,Barusuda,,Indonesia
338,Reallinks,http://huffingtonpost.com,http://dummyimage.com/118x171.png/5fa2dd/ffffff,0878 Crest Line Crossing,Kotlyarevskaya,361218,Russia
339,Voomm,https://godaddy.com,http://dummyimage.com/248x200.png/ff4444/ffffff,14 Steensland Center,Santa Lucia,2712,Philippines
340,Jayo,http://nytimes.com,http://dummyimage.com/121x206.png/ff4444/ffffff,99761 Esch Court,Solnechnyy,353996,Russia
341,Wikibox,https://github.com,http://dummyimage.com/221x198.png/dddddd/000000,6 Barby Circle,Old Shinyanga,,Tanzania
342,Mita,http://alibaba.com,http://dummyimage.com/171x180.png/ff4444/ffffff,060 Northport Road,Amarillo,79105,United States
343,Tambee,http://indiegogo.com,http://dummyimage.com/164x185.png/5fa2dd/ffffff,17925 Bunting Way,Радовиш,2423,Macedonia
344,Trunyx,https://un.org,http://dummyimage.com/143x102.png/dddddd/000000,60995 Drewry Trail,Coro,,Venezuela
345,Avamba,http://nifty.com,http://dummyimage.com/191x141.png/cc0000/ffffff,56 Norway Maple Way,Pandanwangi,,Indonesia
346,Zoomdog,http://sfgate.com,http://dummyimage.com/229x113.png/dddddd/000000,00 Brentwood Lane,Jiaotang,,China
347,Buzzdog,https://springer.com,http://dummyimage.com/207x150.png/cc0000/ffffff,27756 Emmet Avenue,Vrsi,23235,Croatia
348,Buzzster,http://jimdo.com,http://dummyimage.com/188x191.png/5fa2dd/ffffff,0905 Mcbride Point,Zhugang,,China
349,Pixope,http://prweb.com,http://dummyimage.com/184x191.png/5fa2dd/ffffff,638 Tennyson Street,Baihe,,China
350,Buzzshare,http://example.com,http://dummyimage.com/193x210.png/dddddd/000000,36884 School Parkway,Kota Kinabalu,88778,Malaysia
351,Wikivu,http://imgur.com,http://dummyimage.com/144x243.png/ff4444/ffffff,8031 Buell Circle,Juai,,Indonesia
352,Divape,http://naver.com,http://dummyimage.com/121x203.png/5fa2dd/ffffff,9042 Gulseth Way,Göteborg,413 11,Sweden
353,Divavu,https://virginia.edu,http://dummyimage.com/225x146.png/dddddd/000000,36221 Coleman Road,Delareyville,2776,South Africa
354,Omba,http://sfgate.com,http://dummyimage.com/125x138.png/dddddd/000000,35 Chive Center,Leninskiy,678944,Russia
355,Skimia,https://dot.gov,http://dummyimage.com/200x139.png/dddddd/000000,355 Myrtle Trail,Garanhuns,55290-000,Brazil
356,Yombu,http://slashdot.org,http://dummyimage.com/104x207.png/5fa2dd/ffffff,4 Pawling Point,Tiandeng,,China
357,Tagfeed,http://yahoo.co.jp,http://dummyimage.com/114x219.png/5fa2dd/ffffff,2616 Oriole Terrace,Pagsanahan Norte,4023,Philippines
358,Meemm,http://squidoo.com,http://dummyimage.com/206x219.png/dddddd/000000,3189 Prairieview Alley,Umm Sa‘īd,,Qatar
359,Flipopia,http://time.com,http://dummyimage.com/195x100.png/cc0000/ffffff,5896 Sachtjen Trail,Capulaan,5516,Philippines
360,Photospace,http://google.com.br,http://dummyimage.com/165x102.png/cc0000/ffffff,242 Elka Plaza,Arpajon,91295 CEDEX,France
361,Fatz,http://thetimes.co.uk,http://dummyimage.com/220x213.png/ff4444/ffffff,8731 New Castle Plaza,Qo‘qon,,Uzbekistan
362,Thoughtmix,http://deviantart.com,http://dummyimage.com/105x206.png/dddddd/000000,7 Spohn Park,Jovim,4510-005,Portugal
363,Digitube,http://independent.co.uk,http://dummyimage.com/173x242.png/5fa2dd/ffffff,35595 Mayfield Road,Corona,92878,United States
364,Dabshots,https://ameblo.jp,http://dummyimage.com/180x150.png/ff4444/ffffff,04 Park Meadow Parkway,Jasionów,36-212,Poland
365,Zoomcast,https://accuweather.com,http://dummyimage.com/228x222.png/dddddd/000000,73 Straubel Center,Solnechnoye,197738,Russia
366,Flashspan,https://youtube.com,http://dummyimage.com/193x220.png/dddddd/000000,49049 Stephen Court,Boussé,,Burkina Faso
367,Topicblab,https://who.int,http://dummyimage.com/234x123.png/5fa2dd/ffffff,865 Sutteridge Park,Dromiskin,W23,Ireland
368,Flashspan,http://imageshack.us,http://dummyimage.com/107x196.png/dddddd/000000,5 Golf View Crossing,Magtaking,2416,Philippines
369,Janyx,https://netvibes.com,http://dummyimage.com/176x215.png/ff4444/ffffff,0 Ruskin Parkway,Marovoay,,Madagascar
370,Pixonyx,http://dailymotion.com,http://dummyimage.com/220x147.png/5fa2dd/ffffff,26681 Duke Center,Annecy,74982 CEDEX 9,France
371,Yabox,http://angelfire.com,http://dummyimage.com/206x187.png/ff4444/ffffff,09 Carioca Hill,Eldoret,,Kenya
372,Jetpulse,https://360.cn,http://dummyimage.com/104x236.png/5fa2dd/ffffff,20 Sherman Terrace,Tucson,85705,United States
373,Kaymbo,https://virginia.edu,http://dummyimage.com/153x158.png/cc0000/ffffff,52966 Annamark Hill,Pamiers,09104 CEDEX,France
374,Babbleset,https://spotify.com,http://dummyimage.com/232x218.png/cc0000/ffffff,3874 East Junction,Vishnyeva,,Belarus
375,Tagtune,http://washingtonpost.com,http://dummyimage.com/149x210.png/dddddd/000000,68496 Service Park,Leonídio,,Greece
376,Brainlounge,http://geocities.com,http://dummyimage.com/181x143.png/ff4444/ffffff,185 Magdeline Trail,Shangmofang,,China
377,Teklist,https://ovh.net,http://dummyimage.com/212x111.png/cc0000/ffffff,8 Sugar Circle,Sulahan,,Indonesia
378,Voonyx,http://moonfruit.com,http://dummyimage.com/244x157.png/cc0000/ffffff,5 Eagle Crest Alley,Dongobesh,,Tanzania
379,Mydo,https://fastcompany.com,http://dummyimage.com/191x239.png/cc0000/ffffff,94 Ludington Junction,Mandala,,Indonesia
380,Oyoyo,https://blogs.com,http://dummyimage.com/224x142.png/cc0000/ffffff,9 Clemons Road,Dārāb,,Iran
381,Leenti,https://washington.edu,http://dummyimage.com/210x186.png/5fa2dd/ffffff,60 Mcguire Place,Luotang,,China
382,Vitz,http://unesco.org,http://dummyimage.com/168x158.png/dddddd/000000,06 Erie Street,Pandean,,Indonesia
383,Kwinu,http://shinystat.com,http://dummyimage.com/146x169.png/dddddd/000000,28636 Sachtjen Way,Agbani,,Nigeria
384,Npath,https://nyu.edu,http://dummyimage.com/208x232.png/5fa2dd/ffffff,71646 Vera Plaza,Chon Buri,24120,Thailand
385,Ooba,https://jigsy.com,http://dummyimage.com/192x125.png/ff4444/ffffff,06 Kingsford Park,Kolomyya,,Ukraine
386,Skiba,http://storify.com,http://dummyimage.com/202x197.png/cc0000/ffffff,49 Corscot Crossing,Horlivka,,Ukraine
387,Jabberstorm,http://economist.com,http://dummyimage.com/124x248.png/ff4444/ffffff,6519 Beilfuss Circle,Guadalupe,78786,Mexico
388,Myworks,http://webmd.com,http://dummyimage.com/147x131.png/ff4444/ffffff,06138 Express Drive,Taytayan,6204,Philippines
389,Zoonoodle,https://bravesites.com,http://dummyimage.com/130x142.png/cc0000/ffffff,46 Bunting Crossing,Kediren,,Indonesia
390,Gabvine,http://sourceforge.net,http://dummyimage.com/210x200.png/5fa2dd/ffffff,06451 Maryland Street,Qandala,,Somalia
391,Plajo,https://timesonline.co.uk,http://dummyimage.com/242x249.png/ff4444/ffffff,988 Kings Way,Valparaíso,,Chile
392,Gabvine,https://devhub.com,http://dummyimage.com/123x167.png/ff4444/ffffff,1 Elmside Avenue,Nakano,999-7734,Japan
393,Vidoo,http://live.com,http://dummyimage.com/147x153.png/cc0000/ffffff,1 Dawn Crossing,Sozopol,8131,Bulgaria
394,InnoZ,http://taobao.com,http://dummyimage.com/133x140.png/ff4444/ffffff,84 Pleasure Crossing,San Jose,95113,United States
395,Kayveo,https://omniture.com,http://dummyimage.com/209x188.png/cc0000/ffffff,16998 Debra Pass,Xiyuan,,China
396,Mycat,https://jimdo.com,http://dummyimage.com/206x213.png/cc0000/ffffff,22382 Mockingbird Plaza,Ribeirão Pires,09400-000,Brazil
397,Fatz,http://twitpic.com,http://dummyimage.com/243x176.png/dddddd/000000,854 Hoard Place,Ts’khinvali,,Georgia
398,Shuffledrive,https://tinypic.com,http://dummyimage.com/162x239.png/cc0000/ffffff,4 1st Center,Doloon,,Mongolia
399,Pixoboo,http://washington.edu,http://dummyimage.com/240x145.png/5fa2dd/ffffff,03600 Katie Crossing,Elat,,Indonesia
400,Meembee,https://ucoz.ru,http://dummyimage.com/164x136.png/5fa2dd/ffffff,3 Redwing Junction,Bethel Town,,Jamaica
401,Rhybox,https://opera.com,http://dummyimage.com/210x144.png/cc0000/ffffff,663 Anderson Hill,Limeil-Brévannes,94454 CEDEX,France
402,Tagchat,http://kickstarter.com,http://dummyimage.com/167x157.png/dddddd/000000,1 Meadow Vale Center,Baloc,3114,Philippines
403,Abata,http://jigsy.com,http://dummyimage.com/161x127.png/dddddd/000000,1584 Victoria Street,Salitral,10902,Costa Rica
404,Rhycero,https://e-recht24.de,http://dummyimage.com/250x159.png/cc0000/ffffff,4931 Mcbride Lane,Tuzhu,,China
405,Cogidoo,http://cargocollective.com,http://dummyimage.com/150x238.png/dddddd/000000,4 Cascade Drive,Ragay,4410,Philippines
406,Demizz,https://constantcontact.com,http://dummyimage.com/109x222.png/cc0000/ffffff,25 Carioca Hill,Capitán Solari,3515,Argentina
407,Thoughtstorm,https://github.com,http://dummyimage.com/189x225.png/5fa2dd/ffffff,167 Talmadge Park,Yangxi,,China
408,Buzzster,https://uol.com.br,http://dummyimage.com/213x134.png/dddddd/000000,3032 Harper Road,Bingfang,,China
409,Teklist,https://angelfire.com,http://dummyimage.com/165x171.png/ff4444/ffffff,507 Victoria Point,Baochang,,China
410,Nlounge,http://google.it,http://dummyimage.com/234x218.png/dddddd/000000,76 American Center,Šenkovec,40000,Croatia
411,Oyondu,http://elpais.com,http://dummyimage.com/191x211.png/5fa2dd/ffffff,999 Messerschmidt Place,Frederico Westphalen,98400-000,Brazil
412,Brainlounge,https://alibaba.com,http://dummyimage.com/248x123.png/dddddd/000000,65 Reinke Center,Runka,,Nigeria
413,Zoomdog,https://prnewswire.com,http://dummyimage.com/239x165.png/dddddd/000000,36 Northport Point,Santo Amaro,5155-655,Portugal
414,Voonder,https://prnewswire.com,http://dummyimage.com/222x142.png/ff4444/ffffff,458 Lotheville Parkway,Požarevac,,Serbia
415,Devpoint,http://china.com.cn,http://dummyimage.com/109x135.png/5fa2dd/ffffff,03 Dakota Drive,Pombal,58840-000,Brazil
416,Voonder,http://livejournal.com,http://dummyimage.com/169x235.png/dddddd/000000,6039 Mcbride Pass,Velas,9800-525,Portugal
417,Skiptube,https://usatoday.com,http://dummyimage.com/142x118.png/dddddd/000000,543 Dwight Trail,Venilale,,East Timor
418,Voolia,http://qq.com,http://dummyimage.com/139x107.png/cc0000/ffffff,713 Maryland Lane,Krasnyy Yar,613645,Russia
419,Livetube,http://fotki.com,http://dummyimage.com/169x123.png/dddddd/000000,25285 Oxford Point,Longgang,,China
420,Abatz,https://exblog.jp,http://dummyimage.com/220x100.png/ff4444/ffffff,59948 Dapin Point,Tuanjie,,China
421,Meevee,https://unicef.org,http://dummyimage.com/209x202.png/dddddd/000000,94 Colorado Alley,Nielisz,22-413,Poland
422,Latz,https://taobao.com,http://dummyimage.com/223x231.png/cc0000/ffffff,24 Dapin Point,Thanh Khê,,Vietnam
423,Devpulse,https://imgur.com,http://dummyimage.com/112x121.png/cc0000/ffffff,00745 Prairie Rose Drive,Pilar do Sul,18185-000,Brazil
424,Omba,https://businesswire.com,http://dummyimage.com/129x178.png/ff4444/ffffff,887 Melvin Pass,Kuching,93916,Malaysia
425,Realbuzz,https://youtu.be,http://dummyimage.com/175x245.png/5fa2dd/ffffff,917 Mesta Street,Aguadulce,,Panama
426,Brightdog,https://over-blog.com,http://dummyimage.com/204x197.png/ff4444/ffffff,859 Golf View Court,Hengshui,,China
427,Babbleblab,http://google.ca,http://dummyimage.com/167x228.png/5fa2dd/ffffff,28798 Messerschmidt Court,Yeni Suraxanı,,Azerbaijan
428,Browsebug,http://1688.com,http://dummyimage.com/152x212.png/dddddd/000000,5358 Jenna Court,Wuchagou,,China
429,Youspan,https://gnu.org,http://dummyimage.com/143x231.png/cc0000/ffffff,33 Derek Way,Voskresenskoye,606735,Russia
430,Realmix,http://mlb.com,http://dummyimage.com/185x209.png/5fa2dd/ffffff,2 Eggendart Point,Shuitou,,China
431,Vinder,http://liveinternet.ru,http://dummyimage.com/180x208.png/cc0000/ffffff,87293 Clove Avenue,Coroatá,65415-000,Brazil
432,Dynazzy,http://nbcnews.com,http://dummyimage.com/107x177.png/ff4444/ffffff,32544 Bowman Lane,Plandirejo,,Indonesia
433,Babbleopia,http://discuz.net,http://dummyimage.com/198x171.png/cc0000/ffffff,31761 Main Alley,Ketangi,,Indonesia
434,Quimba,http://stanford.edu,http://dummyimage.com/246x121.png/ff4444/ffffff,286 Lakewood Alley,Taohuajiang,,China
435,Voolith,https://qq.com,http://dummyimage.com/144x133.png/5fa2dd/ffffff,7644 Maywood Parkway,København,1131,Denmark
436,Jayo,https://wordpress.com,http://dummyimage.com/242x173.png/ff4444/ffffff,2420 Parkside Point,Tianzhu,,China
437,BlogXS,http://columbia.edu,http://dummyimage.com/199x247.png/cc0000/ffffff,645 Michigan Way,Jinchang,,China
438,Babbleblab,http://infoseek.co.jp,http://dummyimage.com/198x137.png/5fa2dd/ffffff,0 Colorado Circle,Tilburg,5019,Netherlands
439,Cogidoo,https://dailymotion.com,http://dummyimage.com/122x107.png/dddddd/000000,1 Upham Drive,Angasmarca,,Peru
440,Edgeify,https://yale.edu,http://dummyimage.com/206x159.png/5fa2dd/ffffff,481 Reinke Point,Tiksi,678409,Russia
441,Rhyloo,http://histats.com,http://dummyimage.com/193x132.png/5fa2dd/ffffff,947 Vermont Junction,Nowy Tomyśl,64-300,Poland
442,Realfire,https://jugem.jp,http://dummyimage.com/250x175.png/5fa2dd/ffffff,5284 Grim Plaza,San Francisco,,Venezuela
443,Vinder,https://google.it,http://dummyimage.com/246x177.png/5fa2dd/ffffff,9851 Sunfield Hill,‘Abs,,Yemen
444,Tagtune,http://google.co.jp,http://dummyimage.com/219x183.png/5fa2dd/ffffff,02 Starling Place,São Domingos,4620-787,Portugal
445,Leexo,http://com.com,http://dummyimage.com/143x128.png/dddddd/000000,3556 Fairview Trail,Zhangshi,,China
446,Myworks,http://geocities.jp,http://dummyimage.com/149x210.png/cc0000/ffffff,145 Eastwood Way,Xianglan,,China
447,Pixoboo,http://microsoft.com,http://dummyimage.com/198x112.png/ff4444/ffffff,540 Buena Vista Place,Ila Orangun,,Nigeria
448,Skivee,https://intel.com,http://dummyimage.com/227x141.png/5fa2dd/ffffff,0138 4th Circle,Muldersdriseloop,3250,South Africa
449,Yamia,https://ucoz.com,http://dummyimage.com/208x236.png/ff4444/ffffff,35138 Charing Cross Court,Chandra,,Comoros
450,Twimbo,https://desdev.cn,http://dummyimage.com/202x110.png/ff4444/ffffff,832 Portage Center,Boulsa,,Burkina Faso
451,Lazzy,https://slideshare.net,http://dummyimage.com/193x105.png/dddddd/000000,172 Sloan Trail,Yacuiba,,Bolivia
452,Voolith,https://purevolume.com,http://dummyimage.com/115x236.png/cc0000/ffffff,80 Heath Plaza,Jingxiyuan,,China
453,Innojam,http://spotify.com,http://dummyimage.com/202x160.png/ff4444/ffffff,42 Tennessee Way,Aquin,,Haiti
454,Wordify,https://domainmarket.com,http://dummyimage.com/163x118.png/5fa2dd/ffffff,43238 Lunder Way,Jiangkou,,China
455,Flashspan,https://skyrock.com,http://dummyimage.com/176x221.png/cc0000/ffffff,820 Namekagon Parkway,Kushnarënkovo,452230,Russia
456,Skinte,http://youtu.be,http://dummyimage.com/236x201.png/5fa2dd/ffffff,09 Nobel Drive,Moriyama,986-0704,Japan
457,Miboo,https://qq.com,http://dummyimage.com/156x190.png/5fa2dd/ffffff,22 Nancy Avenue,Punta Hermosa,,Peru
458,Roomm,https://a8.net,http://dummyimage.com/157x189.png/5fa2dd/ffffff,52743 Village Park,Cochabamba,,Peru
459,Quatz,http://skyrock.com,http://dummyimage.com/209x180.png/ff4444/ffffff,774 Crowley Point,Santa Maria,48324,Mexico
460,Kare,https://cnn.com,http://dummyimage.com/176x102.png/ff4444/ffffff,912 Center Terrace,Gbawe,,Ghana
461,Quimba,http://nbcnews.com,http://dummyimage.com/157x220.png/cc0000/ffffff,3 Park Meadow Hill,Huancheng,,China
462,Quire,https://moonfruit.com,http://dummyimage.com/163x223.png/cc0000/ffffff,9 Erie Avenue,Letsheng,,Botswana
463,Rhynoodle,http://nifty.com,http://dummyimage.com/100x129.png/dddddd/000000,81066 Blue Bill Park Center,Ozalj,47280,Croatia
464,Twitternation,http://cloudflare.com,http://dummyimage.com/242x174.png/cc0000/ffffff,113 Leroy Circle,Salzburg,5071,Austria
465,Zoombox,https://nsw.gov.au,http://dummyimage.com/165x143.png/dddddd/000000,30223 Rigney Crossing,Patea,4545,New Zealand
466,Zoozzy,http://moonfruit.com,http://dummyimage.com/225x119.png/5fa2dd/ffffff,9 Hintze Hill,Yajin,,China
467,Oyondu,http://blogspot.com,http://dummyimage.com/139x200.png/cc0000/ffffff,02341 La Follette Center,Pira,,Peru
468,Yodoo,https://fema.gov,http://dummyimage.com/215x198.png/ff4444/ffffff,05991 Farwell Road,Lüyang,,China
469,Wikizz,http://123-reg.co.uk,http://dummyimage.com/107x178.png/5fa2dd/ffffff,631 Tony Place,"Palmas De Gran Canaria, Las",35070,Spain
470,Tavu,https://ftc.gov,http://dummyimage.com/114x127.png/dddddd/000000,9 Artisan Court,Kołbaskowo,72-001,Poland
471,Feedspan,https://nifty.com,http://dummyimage.com/171x221.png/5fa2dd/ffffff,831 Shelley Hill,Maralik,,Armenia
472,Twitterworks,https://hc360.com,http://dummyimage.com/235x134.png/ff4444/ffffff,2493 Becker Hill,Qila Abdullāh,86201,Pakistan
473,Eimbee,http://homestead.com,http://dummyimage.com/209x105.png/dddddd/000000,3 Mallory Street,Caraga,3710,Philippines
474,Shufflester,https://google.ru,http://dummyimage.com/111x234.png/cc0000/ffffff,943 6th Hill,Glan,9517,Philippines
475,Bubblebox,https://friendfeed.com,http://dummyimage.com/106x129.png/cc0000/ffffff,2979 Pennsylvania Way,Liuhe,,China
476,Thoughtmix,http://hatena.ne.jp,http://dummyimage.com/180x132.png/cc0000/ffffff,54 Schmedeman Trail,Beopwon,,South Korea
477,Quamba,https://creativecommons.org,http://dummyimage.com/120x207.png/dddddd/000000,51253 Bluejay Junction,Rzeczenica,77-304,Poland
478,Zoombeat,http://accuweather.com,http://dummyimage.com/133x106.png/cc0000/ffffff,0 Schurz Court,Dong’ao,,China
479,Teklist,https://chronoengine.com,http://dummyimage.com/105x209.png/5fa2dd/ffffff,5 Jenna Plaza,Zvečan,,Kosovo
480,Browseblab,https://army.mil,http://dummyimage.com/180x177.png/ff4444/ffffff,898 Fisk Pass,Korczyna,38-420,Poland
481,Meembee,https://gnu.org,http://dummyimage.com/208x158.png/cc0000/ffffff,259 Susan Way,Miches,11517,Dominican Republic
482,Devcast,http://google.pl,http://dummyimage.com/106x236.png/ff4444/ffffff,72559 Lukken Parkway,Zürich,8088,Switzerland
483,Vinte,http://dailymotion.com,http://dummyimage.com/109x100.png/ff4444/ffffff,46647 Dapin Alley,Moxi,,China
484,Thoughtstorm,http://archive.org,http://dummyimage.com/199x118.png/ff4444/ffffff,15248 Hintze Pass,Taunggyi,,Myanmar
485,Rhybox,http://illinois.edu,http://dummyimage.com/203x162.png/dddddd/000000,526 Wayridge Road,Kostyantynivka,,Ukraine
486,Twitterbeat,http://pen.io,http://dummyimage.com/102x194.png/5fa2dd/ffffff,8 Marquette Court,Kaka,,Turkmenistan
487,Blognation,http://livejournal.com,http://dummyimage.com/238x104.png/cc0000/ffffff,767 Warbler Park,Sipeng,,China
488,Jazzy,https://alibaba.com,http://dummyimage.com/168x247.png/5fa2dd/ffffff,31077 Village Green Hill,Chengdong,,China
489,Jabbersphere,https://hugedomains.com,http://dummyimage.com/250x160.png/ff4444/ffffff,3835 American Pass,Palangkaraya,,Indonesia
490,Skiptube,https://google.com.au,http://dummyimage.com/108x134.png/dddddd/000000,034 Scoville Parkway,Fort-de-France,97243 CEDEX,Martinique
491,Jabbersphere,http://fema.gov,http://dummyimage.com/133x179.png/5fa2dd/ffffff,2270 Holy Cross Drive,Hrvace,21233,Croatia
492,Livepath,https://dailymail.co.uk,http://dummyimage.com/220x229.png/dddddd/000000,74723 Esker Trail,Maradabangga,,Indonesia
493,Meetz,https://businesswire.com,http://dummyimage.com/244x139.png/dddddd/000000,4952 Hovde Parkway,Eman,,China
494,JumpXS,https://dyndns.org,http://dummyimage.com/223x133.png/5fa2dd/ffffff,47 Redwing Hill,Yumendong,,China
495,Realcube,https://goo.ne.jp,http://dummyimage.com/233x130.png/ff4444/ffffff,870 Bunting Park,Nelson,7045,New Zealand
496,Dablist,http://163.com,http://dummyimage.com/144x158.png/dddddd/000000,9 Manufacturers Court,União da Vitória,84600-000,Brazil
497,Zoomlounge,https://nytimes.com,http://dummyimage.com/201x230.png/ff4444/ffffff,73 Linden Point,Gómez,,Panama
498,Kanoodle,https://icq.com,http://dummyimage.com/100x189.png/dddddd/000000,1 Farragut Avenue,Sarlat-la-Canéda,24212 CEDEX,France
499,Mydeo,https://ibm.com,http://dummyimage.com/225x206.png/dddddd/000000,19 Independence Junction,Paratinga,47500-000,Brazil
500,Roodel,http://ucoz.com,http://dummyimage.com/124x250.png/dddddd/000000,4775 Burning Wood Circle,Santa Maria Oliveira,4765-322,Portugal
501,Demivee,http://eventbrite.com,http://dummyimage.com/160x144.png/ff4444/ffffff,7752 Grover Circle,Jomsom,,Nepal
502,Jabberbean,https://google.ca,http://dummyimage.com/107x221.png/cc0000/ffffff,6432 Melby Terrace,Železnice,507 13,Czech Republic
503,Jaloo,https://abc.net.au,http://dummyimage.com/196x238.png/cc0000/ffffff,2657 Melrose Park,Prévost,T7Z,Canada
504,Izio,http://va.gov,http://dummyimage.com/217x145.png/cc0000/ffffff,252 Hagan Park,Banga,9511,Philippines
505,Skiba,http://tmall.com,http://dummyimage.com/135x163.png/5fa2dd/ffffff,9 Cherokee Hill,Pathum Thani,90110,Thailand
506,Dabtype,https://homestead.com,http://dummyimage.com/214x128.png/dddddd/000000,477 Lakewood Court,São Lourenço da Mata,54700-000,Brazil
507,Mita,https://arstechnica.com,http://dummyimage.com/121x156.png/cc0000/ffffff,64 Village Parkway,Sainte-Marthe-sur-le-Lac,H9K,Canada
508,Fiveclub,https://loc.gov,http://dummyimage.com/181x237.png/5fa2dd/ffffff,1 Judy Parkway,Värnamo,331 54,Sweden
509,Browsetype,http://usnews.com,http://dummyimage.com/117x179.png/ff4444/ffffff,23998 Loeprich Terrace,Luanshya,,Zambia
510,Oyoyo,http://dyndns.org,http://dummyimage.com/207x137.png/cc0000/ffffff,4803 Forest Dale Park,Dongyuan,,China
511,Einti,https://sun.com,http://dummyimage.com/215x189.png/cc0000/ffffff,9896 Northview Road,Huyuan,,China
512,Voonder,https://amazonaws.com,http://dummyimage.com/154x234.png/ff4444/ffffff,416 Dahle Parkway,Languan,,China
513,Teklist,https://bandcamp.com,http://dummyimage.com/201x118.png/dddddd/000000,33680 Caliangt Crossing,Mojkovac,,Montenegro
514,Flipstorm,https://cocolog-nifty.com,http://dummyimage.com/247x177.png/5fa2dd/ffffff,7 Arkansas Street,Gaya,,Niger
515,InnoZ,http://hubpages.com,http://dummyimage.com/123x191.png/dddddd/000000,99801 Truax Court,Albuquerque,87105,United States
516,Quire,http://wordpress.com,http://dummyimage.com/128x176.png/ff4444/ffffff,8 Nevada Plaza,Taraan,,Indonesia
517,Divape,https://yellowpages.com,http://dummyimage.com/169x225.png/5fa2dd/ffffff,33112 Gateway Plaza,Cúcuta,540019,Colombia
518,Divape,https://dagondesign.com,http://dummyimage.com/116x153.png/dddddd/000000,722 Pennsylvania Avenue,Guanting,,China
519,Dynava,https://mozilla.org,http://dummyimage.com/161x192.png/ff4444/ffffff,1 Hanover Avenue,Banja Luka,,Bosnia and Herzegovina
520,Mita,http://chron.com,http://dummyimage.com/172x109.png/5fa2dd/ffffff,366 Lunder Center,Ribeira Quente,9675-165,Portugal
521,Trilia,http://google.it,http://dummyimage.com/242x187.png/ff4444/ffffff,48988 Oriole Crossing,San Rafael Arriba,10304,Costa Rica
522,Jetwire,http://abc.net.au,http://dummyimage.com/105x242.png/cc0000/ffffff,5281 Thackeray Road,Agnibilékrou,,Ivory Coast
523,Meevee,http://e-recht24.de,http://dummyimage.com/183x165.png/ff4444/ffffff,36 Rutledge Street,Chyňava,267 07,Czech Republic
524,Youspan,http://disqus.com,http://dummyimage.com/129x175.png/dddddd/000000,61 Lindbergh Avenue,Rantau,,Indonesia
525,Kamba,http://omniture.com,http://dummyimage.com/234x169.png/cc0000/ffffff,786 Fieldstone Place,Juren,,China
526,Realcube,http://ovh.net,http://dummyimage.com/248x136.png/cc0000/ffffff,968 Loomis Park,Tongjing,,China
527,Feedspan,https://redcross.org,http://dummyimage.com/179x137.png/dddddd/000000,655 Loeprich Avenue,Yaogu,,China
528,Jabbersphere,http://marriott.com,http://dummyimage.com/188x165.png/cc0000/ffffff,5748 Clyde Gallagher Point,Selebi-Phikwe,,Botswana
529,Tagchat,https://salon.com,http://dummyimage.com/218x173.png/dddddd/000000,5456 Ronald Regan Pass,Panaitólion,,Greece
530,Thoughtblab,https://imgur.com,http://dummyimage.com/146x236.png/5fa2dd/ffffff,8997 Oriole Plaza,El Copé,,Panama
531,Jaxspan,http://yelp.com,http://dummyimage.com/182x174.png/dddddd/000000,12 Chive Lane,Bajo Pichanaqui,,Peru
532,Yakitri,http://ftc.gov,http://dummyimage.com/137x164.png/ff4444/ffffff,6 Sommers Junction,Hongsi,,China
533,Rhynyx,http://dell.com,http://dummyimage.com/202x178.png/dddddd/000000,347 Darwin Circle,Nantian,,China
534,Trupe,https://skyrock.com,http://dummyimage.com/165x102.png/ff4444/ffffff,00217 Upham Point,Itabuna,45600-000,Brazil
535,Tagcat,https://people.com.cn,http://dummyimage.com/248x156.png/dddddd/000000,85167 Welch Place,Guancheng,,China
536,Skimia,http://printfriendly.com,http://dummyimage.com/207x213.png/5fa2dd/ffffff,20 Crownhardt Plaza,Kurikka,61301,Finland
537,Lazzy,http://plala.or.jp,http://dummyimage.com/146x231.png/cc0000/ffffff,78 Moulton Alley,Idfu,,Egypt
538,Kwimbee,https://nifty.com,http://dummyimage.com/230x241.png/5fa2dd/ffffff,7002 Lindbergh Park,Léchovo,,Greece
539,Eabox,http://bloglines.com,http://dummyimage.com/160x119.png/5fa2dd/ffffff,196 Pond Trail,Napu,,Indonesia
540,Tekfly,http://linkedin.com,http://dummyimage.com/157x160.png/dddddd/000000,64 Springview Avenue,Langádhia,,Greece
541,Jamia,http://blogtalkradio.com,http://dummyimage.com/213x146.png/5fa2dd/ffffff,7 Doe Crossing Parkway,Ríohacha,440017,Colombia
542,Meejo,http://webeden.co.uk,http://dummyimage.com/214x145.png/5fa2dd/ffffff,434 Blue Bill Park Junction,Banjarejo,,Indonesia
543,Snaptags,http://sogou.com,http://dummyimage.com/180x173.png/dddddd/000000,7 Coleman Park,Ozëry,142152,Russia
544,Lazzy,http://rakuten.co.jp,http://dummyimage.com/117x125.png/dddddd/000000,75 Bunting Junction,Benoni,1527,South Africa
545,Eadel,http://multiply.com,http://dummyimage.com/238x146.png/cc0000/ffffff,60 Center Point,Tabu,,Indonesia
546,Eidel,https://deviantart.com,http://dummyimage.com/151x169.png/dddddd/000000,242 Transport Junction,Vary,,Ukraine
547,Yozio,http://imageshack.us,http://dummyimage.com/230x135.png/5fa2dd/ffffff,68997 La Follette Hill,Kiukasen,,Indonesia
548,Zazio,http://issuu.com,http://dummyimage.com/130x130.png/5fa2dd/ffffff,07 Sachs Road,Manacsac,4332,Philippines
549,Latz,https://walmart.com,http://dummyimage.com/230x236.png/dddddd/000000,7 Sommers Junction,Teresópolis,25950-000,Brazil
550,Brainverse,http://ucsd.edu,http://dummyimage.com/235x167.png/ff4444/ffffff,48231 Rowland Center,Kanoni,,Uganda
551,Thoughtstorm,https://clickbank.net,http://dummyimage.com/156x190.png/dddddd/000000,8172 Randy Crossing,Qingtong,,China
552,Youtags,http://furl.net,http://dummyimage.com/179x149.png/cc0000/ffffff,21 Londonderry Way,Argelia,761517,Colombia
553,Livefish,https://hexun.com,http://dummyimage.com/128x133.png/ff4444/ffffff,44561 Hooker Circle,Krajan Sumurtawang,,Indonesia
554,Aimbu,http://abc.net.au,http://dummyimage.com/111x129.png/cc0000/ffffff,0245 Prairieview Park,Xinqiao,,China
555,Brainverse,http://bravesites.com,http://dummyimage.com/159x200.png/dddddd/000000,35 Columbus Point,Sājūr,,Israel
556,Topiczoom,http://nps.gov,http://dummyimage.com/235x139.png/5fa2dd/ffffff,8 Center Alley,Ipís,10805,Costa Rica
557,Realblab,https://google.ru,http://dummyimage.com/215x209.png/ff4444/ffffff,00 Heath Alley,Manacsac,4332,Philippines
558,Jetpulse,https://sbwire.com,http://dummyimage.com/188x134.png/cc0000/ffffff,7174 Sunnyside Court,Napanee Downtown,M5E,Canada
559,Meezzy,http://issuu.com,http://dummyimage.com/149x202.png/5fa2dd/ffffff,2 Riverside Drive,Zhangduangu,,China
560,Voomm,https://eventbrite.com,http://dummyimage.com/110x207.png/cc0000/ffffff,2 Jackson Place,Almafuerte,3317,Argentina
561,Pixonyx,https://businesswire.com,http://dummyimage.com/245x171.png/cc0000/ffffff,9172 Main Road,Partille,433 31,Sweden
562,Mydeo,http://irs.gov,http://dummyimage.com/181x144.png/dddddd/000000,72323 Sutteridge Point,Jindong,,China
563,Dablist,https://ustream.tv,http://dummyimage.com/100x213.png/dddddd/000000,203 Golden Leaf Road,Säffle,661 24,Sweden
564,Kazio,http://elpais.com,http://dummyimage.com/169x165.png/dddddd/000000,984 Florence Avenue,Taytayan,1470,Philippines
565,Aibox,http://nbcnews.com,http://dummyimage.com/129x235.png/5fa2dd/ffffff,4 Sunbrook Drive,Leninskoye,197733,Russia
566,Babblestorm,http://omniture.com,http://dummyimage.com/113x211.png/ff4444/ffffff,3 Green Place,Ar Rubū‘,,Yemen
567,Leenti,http://free.fr,http://dummyimage.com/105x100.png/ff4444/ffffff,6648 Straubel Drive,Leonidovo,694230,Russia
568,Leexo,https://samsung.com,http://dummyimage.com/162x197.png/5fa2dd/ffffff,8218 Vidon Drive,Ketangi,,Indonesia
569,Thoughtworks,https://friendfeed.com,http://dummyimage.com/192x176.png/cc0000/ffffff,0427 Hazelcrest Crossing,Padangulaktanding,,Indonesia
570,Youtags,https://dot.gov,http://dummyimage.com/158x145.png/ff4444/ffffff,3904 7th Parkway,Paris 09,75318 CEDEX 09,France
571,Dabfeed,https://shareasale.com,http://dummyimage.com/105x245.png/5fa2dd/ffffff,7998 Hooker Park,Guarenas,,Venezuela
572,Pixoboo,https://amazonaws.com,http://dummyimage.com/223x241.png/dddddd/000000,71 5th Road,Lugait,9025,Philippines
573,Izio,http://ezinearticles.com,http://dummyimage.com/244x179.png/5fa2dd/ffffff,9837 Gateway Road,Sansheng,,China
574,Skinix,http://geocities.jp,http://dummyimage.com/200x176.png/5fa2dd/ffffff,629 Barnett Pass,San Nicolás,,Honduras
575,Yakidoo,https://is.gd,http://dummyimage.com/202x100.png/cc0000/ffffff,2458 Jenna Circle,Działoszyce,28-440,Poland
576,Vipe,http://ucoz.ru,http://dummyimage.com/223x169.png/dddddd/000000,4385 Gina Lane,Jiantian,,China
577,Realcube,http://is.gd,http://dummyimage.com/149x105.png/cc0000/ffffff,82 Pleasure Junction,Kerbuyan,,Indonesia
578,Camimbo,https://shop-pro.jp,http://dummyimage.com/217x205.png/cc0000/ffffff,397 Mesta Pass,Irecê,44900-000,Brazil
579,Flashspan,https://washingtonpost.com,http://dummyimage.com/125x176.png/ff4444/ffffff,199 Walton Hill,Gampingan,,Indonesia
580,Aimbu,https://i2i.jp,http://dummyimage.com/131x126.png/dddddd/000000,19 High Crossing Parkway,Nangkapayung,,Indonesia
581,Aimbo,https://ovh.net,http://dummyimage.com/161x146.png/5fa2dd/ffffff,292 Grover Crossing,Deán Funes,4417,Argentina
582,Yotz,https://ucsd.edu,http://dummyimage.com/141x197.png/5fa2dd/ffffff,1 Kipling Court,Phra Yuen,40320,Thailand
583,Demimbu,http://abc.net.au,http://dummyimage.com/219x241.png/cc0000/ffffff,80464 Florence Avenue,Sypniewo,06-216,Poland
584,Twitternation,https://engadget.com,http://dummyimage.com/120x149.png/dddddd/000000,25210 David Court,São Vicente de Ferreira,9545-524,Portugal
585,Eidel,https://last.fm,http://dummyimage.com/130x143.png/dddddd/000000,4590 Jenifer Avenue,Carlos Barbosa,95185-000,Brazil
586,Flashset,http://scientificamerican.com,http://dummyimage.com/103x181.png/dddddd/000000,9479 Shelley Avenue,Ustynivka,,Ukraine
587,Blogtags,https://chronoengine.com,http://dummyimage.com/175x172.png/5fa2dd/ffffff,609 Morning Center,San José del Guaviare,950009,Colombia
588,Leenti,https://sohu.com,http://dummyimage.com/207x158.png/dddddd/000000,58744 Hanover Crossing,Xylókastro,,Greece
589,Photofeed,https://europa.eu,http://dummyimage.com/182x130.png/ff4444/ffffff,5 Dorton Alley,Cireundang,,Indonesia
590,Avaveo,http://1und1.de,http://dummyimage.com/140x237.png/ff4444/ffffff,42406 Southridge Point,Mboto,,Indonesia
591,Babbleblab,http://privacy.gov.au,http://dummyimage.com/120x107.png/dddddd/000000,70035 Independence Hill,Xomong,,China
592,Leenti,http://ftc.gov,http://dummyimage.com/142x195.png/5fa2dd/ffffff,4890 Sugar Parkway,Tama,5385,Argentina
593,Gevee,http://e-recht24.de,http://dummyimage.com/166x156.png/dddddd/000000,40749 Memorial Road,Fulu,,China
594,Jabbertype,http://chicagotribune.com,http://dummyimage.com/231x114.png/ff4444/ffffff,5 Becker Court,Abovyan,,Armenia
595,Twitterwire,https://bbb.org,http://dummyimage.com/221x243.png/ff4444/ffffff,06870 Lake View Court,Gornji Grad,3342,Slovenia
596,Lazz,https://usgs.gov,http://dummyimage.com/116x132.png/5fa2dd/ffffff,4 Luster Street,Thawi Watthana,62180,Thailand
597,Rhynyx,https://yahoo.com,http://dummyimage.com/230x221.png/ff4444/ffffff,512 Grover Drive,Tivat,,Montenegro
598,Rhynoodle,https://bigcartel.com,http://dummyimage.com/124x197.png/dddddd/000000,77384 Bowman Lane,Bojadła,66-130,Poland
599,Twitterworks,https://reference.com,http://dummyimage.com/197x139.png/cc0000/ffffff,69 Harbort Circle,Toksovo,188667,Russia
600,Skipfire,http://noaa.gov,http://dummyimage.com/120x186.png/dddddd/000000,7 Forest Run Court,Foča,,Bosnia and Herzegovina
601,Livefish,https://mapy.cz,http://dummyimage.com/134x141.png/cc0000/ffffff,5 Mesta Alley,Oton,5020,Philippines
602,Voonix,https://ucoz.com,http://dummyimage.com/168x136.png/ff4444/ffffff,981 1st Pass,Anadia,3780-204,Portugal
603,Meembee,https://lycos.com,http://dummyimage.com/206x243.png/cc0000/ffffff,8447 Amoth Terrace,Jahāniān Shāh,40231,Pakistan
604,Topicblab,https://yolasite.com,http://dummyimage.com/211x116.png/ff4444/ffffff,55653 Karstens Crossing,Tanda,,Egypt
605,Yakidoo,http://cornell.edu,http://dummyimage.com/106x170.png/dddddd/000000,46656 Kim Lane,Zhetian,,China
606,Eimbee,https://wunderground.com,http://dummyimage.com/133x208.png/cc0000/ffffff,9 Burning Wood Pass,Skrzyszów,44-348,Poland
607,Wordify,http://nationalgeographic.com,http://dummyimage.com/131x109.png/ff4444/ffffff,77 Fair Oaks Junction,Donskoy,301767,Russia
608,Youopia,http://facebook.com,http://dummyimage.com/161x134.png/dddddd/000000,58722 Forest Street,Mozirje,3330,Slovenia
609,Reallinks,https://slate.com,http://dummyimage.com/149x163.png/cc0000/ffffff,1725 Truax Plaza,San Antonio,71200,Mexico
610,Mynte,https://smugmug.com,http://dummyimage.com/151x182.png/ff4444/ffffff,60844 Scott Pass,Oleszyce,37-630,Poland
611,Jayo,http://dyndns.org,http://dummyimage.com/186x249.png/ff4444/ffffff,7 Shelley Pass,Courbevoie,92671 CEDEX,France
612,Edgewire,https://yahoo.co.jp,http://dummyimage.com/108x138.png/cc0000/ffffff,3 Thierer Road,Canaries,,Saint Lucia
613,Zoonder,http://ibm.com,http://dummyimage.com/192x144.png/5fa2dd/ffffff,89 Hansons Plaza,Piketberg,8115,South Africa
614,Meevee,http://hibu.com,http://dummyimage.com/133x208.png/cc0000/ffffff,4 Warrior Junction,Tuchomie,77-133,Poland
615,Ntag,http://tripadvisor.com,http://dummyimage.com/166x194.png/5fa2dd/ffffff,424 Thompson Road,Wanbu,,China
616,Voonte,http://barnesandnoble.com,http://dummyimage.com/185x246.png/5fa2dd/ffffff,0 Jay Park,Lucaya,,Bahamas
617,BlogXS,https://wp.com,http://dummyimage.com/243x247.png/5fa2dd/ffffff,821 Towne Park,Xiangdian,,China
618,Zoombeat,http://edublogs.org,http://dummyimage.com/171x104.png/dddddd/000000,435 Derek Terrace,Bungo-Takada-shi,879-0617,Japan
619,Eidel,https://mozilla.org,http://dummyimage.com/107x133.png/dddddd/000000,5 Elmside Road,Wola Filipowska,32-067,Poland
620,Wikibox,https://msn.com,http://dummyimage.com/198x239.png/ff4444/ffffff,1 Fisk Road,Manacsac,4332,Philippines
621,Youspan,http://marriott.com,http://dummyimage.com/185x229.png/cc0000/ffffff,839 Westport Park,Astorga,86730-000,Brazil
622,Ooba,http://marriott.com,http://dummyimage.com/126x151.png/ff4444/ffffff,06107 Menomonie Place,Káto Glikóvrisi,,Greece
623,Mynte,https://netscape.com,http://dummyimage.com/103x130.png/ff4444/ffffff,5409 Carpenter Park,Kedatuan,,Indonesia
624,Rhyzio,http://yolasite.com,http://dummyimage.com/174x195.png/ff4444/ffffff,3510 Monument Terrace,Irahuan,5301,Philippines
625,Aibox,http://goo.ne.jp,http://dummyimage.com/174x133.png/cc0000/ffffff,2 Corscot Hill,Ropa,38-312,Poland
626,JumpXS,https://jiathis.com,http://dummyimage.com/104x188.png/dddddd/000000,97 Dorton Plaza,Rahayu Dua,,Indonesia
627,Realmix,https://blog.com,http://dummyimage.com/209x230.png/5fa2dd/ffffff,0 Schlimgen Plaza,Shiogama,987-0058,Japan
628,Babblestorm,https://wordpress.com,http://dummyimage.com/247x106.png/cc0000/ffffff,0481 Meadow Vale Pass,Lebane,,Serbia
629,Twitternation,http://de.vu,http://dummyimage.com/138x198.png/ff4444/ffffff,36 Crownhardt Place,Flor da Rosa,7430-215,Portugal
630,Livepath,https://elegantthemes.com,http://dummyimage.com/180x166.png/cc0000/ffffff,6 Prairie Rose Street,Kawage,519-0142,Japan
631,Meevee,http://storify.com,http://dummyimage.com/122x120.png/dddddd/000000,4382 Burrows Court,Songshu,,China
632,Livefish,http://shinystat.com,http://dummyimage.com/233x186.png/ff4444/ffffff,78284 Rutledge Way,Livadiya,363001,Russia
633,Meezzy,https://themeforest.net,http://dummyimage.com/136x121.png/cc0000/ffffff,3 South Center,Karangtalun,,Indonesia
634,Skivee,http://php.net,http://dummyimage.com/181x245.png/ff4444/ffffff,662 Artisan Circle,Almenara,39900-000,Brazil
635,Avamm,http://simplemachines.org,http://dummyimage.com/189x183.png/5fa2dd/ffffff,5991 Park Meadow Place,Nilanapo,,Indonesia
636,Topiczoom,http://typepad.com,http://dummyimage.com/225x113.png/cc0000/ffffff,16 Lillian Park,Żabia Wola,96-321,Poland
637,Skiptube,https://wunderground.com,http://dummyimage.com/199x113.png/ff4444/ffffff,7603 Cordelia Avenue,Bayt Maqdūm,,Palestinian Territory
638,Meemm,https://patch.com,http://dummyimage.com/157x242.png/5fa2dd/ffffff,395 Nova Plaza,Izra‘,,Syria
639,Quinu,http://blogs.com,http://dummyimage.com/149x142.png/dddddd/000000,4 Buhler Court,Sidowayah Lor,,Indonesia
640,Topiczoom,http://over-blog.com,http://dummyimage.com/161x186.png/ff4444/ffffff,175 Shasta Road,Pompéia,17580-000,Brazil
641,Babblestorm,http://e-recht24.de,http://dummyimage.com/227x121.png/5fa2dd/ffffff,81 Longview Center,Ourinhos,19900-000,Brazil
642,Dabshots,https://uiuc.edu,http://dummyimage.com/214x240.png/5fa2dd/ffffff,059 Arapahoe Lane,Tapon,6035,Philippines
643,Shuffledrive,http://sourceforge.net,http://dummyimage.com/233x208.png/cc0000/ffffff,501 Holy Cross Point,Mengcheng Chengguanzhen,,China
644,Centizu,https://cbsnews.com,http://dummyimage.com/203x154.png/ff4444/ffffff,2 Brickson Park Parkway,Matsena,,Nigeria
645,Topicblab,https://wp.com,http://dummyimage.com/229x158.png/ff4444/ffffff,52459 Pine View Plaza,Talpe,80615,Sri Lanka
646,Jaloo,http://ihg.com,http://dummyimage.com/170x189.png/cc0000/ffffff,95 Stephen Center,Duantan,,China
647,Aibox,http://va.gov,http://dummyimage.com/182x196.png/5fa2dd/ffffff,60950 Heffernan Center,Kosava,,Belarus
648,BlogXS,https://ovh.net,http://dummyimage.com/119x137.png/5fa2dd/ffffff,6 Florence Alley,Alta Gracia,5186,Argentina
649,Jabberstorm,http://microsoft.com,http://dummyimage.com/186x246.png/dddddd/000000,145 Ruskin Street,Kota Bharu,15604,Malaysia
650,Yakijo,http://cbsnews.com,http://dummyimage.com/111x120.png/ff4444/ffffff,174 Eliot Lane,Doumen,,China
651,Katz,http://admin.ch,http://dummyimage.com/113x180.png/ff4444/ffffff,08 Nevada Street,Prosperous,R14,Ireland
652,Quire,http://cdbaby.com,http://dummyimage.com/117x113.png/5fa2dd/ffffff,300 Havey Crossing,Pentaplátano,,Greece
653,Lazz,http://desdev.cn,http://dummyimage.com/218x153.png/ff4444/ffffff,8 Harbort Park,Brooklyn,11254,United States
654,Feedfire,https://ox.ac.uk,http://dummyimage.com/206x219.png/5fa2dd/ffffff,750 Graceland Trail,Xiheshan,,China
655,Vinder,http://linkedin.com,http://dummyimage.com/233x227.png/dddddd/000000,55417 Waywood Trail,Mendez-Nuñez,4221,Philippines
656,Muxo,https://ebay.co.uk,http://dummyimage.com/189x112.png/5fa2dd/ffffff,7877 Grayhawk Court,Huhe,,China
657,Digitube,https://simplemachines.org,http://dummyimage.com/119x163.png/dddddd/000000,1444 Summit Plaza,Paris 17,75853 CEDEX 17,France
658,Twitternation,https://list-manage.com,http://dummyimage.com/111x198.png/cc0000/ffffff,171 Bluejay Alley,Kampinos,05-085,Poland
659,Demimbu,https://google.es,http://dummyimage.com/237x203.png/dddddd/000000,5202 Jay Street,Liquan Chengguanzhen,,China
660,Feedspan,https://bigcartel.com,http://dummyimage.com/239x111.png/dddddd/000000,1408 Huxley Point,Morropón,,Peru
661,Meetz,https://sourceforge.net,http://dummyimage.com/137x212.png/cc0000/ffffff,3 Victoria Place,Wangunjaya,,Indonesia
662,Centimia,http://springer.com,http://dummyimage.com/113x169.png/ff4444/ffffff,11732 Leroy Terrace,Parapat,,Indonesia
663,Gabtune,https://dailymail.co.uk,http://dummyimage.com/222x181.png/ff4444/ffffff,8 Hooker Drive,Sovetskiy,188918,Russia
664,Eare,https://redcross.org,http://dummyimage.com/129x194.png/cc0000/ffffff,37793 Morningstar Way,Dengmu,,China
665,Twitternation,http://jugem.jp,http://dummyimage.com/206x224.png/cc0000/ffffff,1024 Utah Avenue,Sila,,Indonesia
666,Gabtype,https://phoca.cz,http://dummyimage.com/179x101.png/dddddd/000000,166 Merry Lane,Tunal,,Peru
667,Meejo,http://ucla.edu,http://dummyimage.com/206x183.png/ff4444/ffffff,08 Darwin Avenue,Banjar Kawan,,Indonesia
668,Centimia,http://free.fr,http://dummyimage.com/243x232.png/dddddd/000000,21 American Plaza,Pa Bon,93170,Thailand
669,Jetwire,http://ucsd.edu,http://dummyimage.com/149x118.png/ff4444/ffffff,93 1st Way,Lazdijai,67001,Lithuania
670,Voolith,https://go.com,http://dummyimage.com/240x138.png/5fa2dd/ffffff,20883 1st Pass,Vigo,36205,Spain
671,Mynte,http://meetup.com,http://dummyimage.com/213x199.png/cc0000/ffffff,4 Dwight Center,Dakoutun,,China
672,Buzzbean,http://ocn.ne.jp,http://dummyimage.com/230x249.png/ff4444/ffffff,9021 Spohn Plaza,Cotmon,4500,Philippines
673,Devify,http://mediafire.com,http://dummyimage.com/228x146.png/ff4444/ffffff,60 Steensland Drive,Gaoling,,China
674,Devify,https://meetup.com,http://dummyimage.com/144x184.png/ff4444/ffffff,29 Debra Alley,Itéa,,Greece
675,Twitterwire,https://photobucket.com,http://dummyimage.com/113x236.png/dddddd/000000,829 Sycamore Drive,Antes,3050-015,Portugal
676,Realpoint,https://irs.gov,http://dummyimage.com/245x231.png/5fa2dd/ffffff,76 Rockefeller Circle,Konstantinovskoye,356500,Russia
677,Bubblemix,https://java.com,http://dummyimage.com/241x169.png/ff4444/ffffff,0757 Shasta Place,Hengtang,,China
678,Edgeclub,http://over-blog.com,http://dummyimage.com/122x133.png/ff4444/ffffff,2 Forest Run Parkway,Tabuc Pontevedra,5815,Philippines
679,Zoozzy,http://mediafire.com,http://dummyimage.com/247x159.png/ff4444/ffffff,10158 Park Meadow Lane,La Cueva,,Bolivia
680,Wordtune,http://gizmodo.com,http://dummyimage.com/148x237.png/5fa2dd/ffffff,50 Arkansas Point,Palagao Norte,0918,Philippines
681,Twinte,https://github.com,http://dummyimage.com/101x118.png/dddddd/000000,97508 Pawling Street,Susuman,686314,Russia
682,Rhynoodle,http://huffingtonpost.com,http://dummyimage.com/149x220.png/5fa2dd/ffffff,251 Lindbergh Way,Klau,,Indonesia
683,Cogibox,https://hubpages.com,http://dummyimage.com/110x163.png/cc0000/ffffff,6 Prentice Circle,Emiliano Zapata,70805,Mexico
684,Feedfire,http://tiny.cc,http://dummyimage.com/120x171.png/dddddd/000000,95 Doe Crossing Hill,Langtang,,Nigeria
685,Devify,https://upenn.edu,http://dummyimage.com/102x200.png/5fa2dd/ffffff,4904 Coleman Terrace,Ciemas,,Indonesia
686,Linktype,https://chron.com,http://dummyimage.com/225x212.png/ff4444/ffffff,92 Declaration Terrace,Payapa,5002,Philippines
687,Skaboo,https://yandex.ru,http://dummyimage.com/128x109.png/dddddd/000000,729 Loomis Avenue,Kingston,DT10,United Kingdom
688,Skyvu,http://sogou.com,http://dummyimage.com/101x240.png/5fa2dd/ffffff,169 Fallview Terrace,Nestório,,Greece
689,Babblestorm,http://twitpic.com,http://dummyimage.com/119x147.png/ff4444/ffffff,0605 Eggendart Point,Markowa,37-120,Poland
690,Podcat,https://amazon.de,http://dummyimage.com/103x140.png/dddddd/000000,10 Lukken Crossing,Pampas,,Peru
691,Ainyx,https://nifty.com,http://dummyimage.com/231x102.png/5fa2dd/ffffff,06104 Farwell Park,Xianghu,,China
692,Jabberbean,https://myspace.com,http://dummyimage.com/112x100.png/dddddd/000000,364 Ridge Oak Place,Pembroke,PBK,Malta
693,Skinte,http://guardian.co.uk,http://dummyimage.com/224x160.png/dddddd/000000,52666 Mallard Circle,Stockholm,113 39,Sweden
694,Rhyzio,https://canalblog.com,http://dummyimage.com/144x228.png/ff4444/ffffff,42 Clove Parkway,Novyy,431373,Russia
695,Photobug,https://pcworld.com,http://dummyimage.com/120x108.png/5fa2dd/ffffff,2293 Vernon Terrace,Passos,4710-730,Portugal
696,Ntags,https://jigsy.com,http://dummyimage.com/217x242.png/5fa2dd/ffffff,24863 Lillian Road,Catayauan,3509,Philippines
697,Vipe,http://purevolume.com,http://dummyimage.com/203x236.png/cc0000/ffffff,79046 Mallory Point,Żyrardów,96-304,Poland
698,Realblab,http://bizjournals.com,http://dummyimage.com/221x248.png/cc0000/ffffff,559 Northwestern Point,Horodyshche,,Ukraine
699,Fiveclub,https://hp.com,http://dummyimage.com/187x180.png/5fa2dd/ffffff,1638 Grayhawk Junction,Luqiao,,China
700,Photospace,https://freewebs.com,http://dummyimage.com/111x183.png/cc0000/ffffff,47 Manitowish Parkway,Farap,,Turkmenistan
701,Npath,https://princeton.edu,http://dummyimage.com/234x132.png/dddddd/000000,522 Homewood Avenue,Paatan,9406,Philippines
702,Zoomdog,https://ifeng.com,http://dummyimage.com/206x219.png/cc0000/ffffff,1 Sutteridge Junction,Sagopshi,386340,Russia
703,Flashpoint,https://google.com.hk,http://dummyimage.com/148x206.png/ff4444/ffffff,51090 Dawn Terrace,Gataivai,,Samoa
704,Buzzster,https://cnbc.com,http://dummyimage.com/152x122.png/cc0000/ffffff,757 Commercial Avenue,San Roque,4630,Argentina
705,Oyoyo,https://barnesandnoble.com,http://dummyimage.com/198x183.png/dddddd/000000,39 Nova Park,Blagoevgrad,2729,Bulgaria
706,Eayo,https://buzzfeed.com,http://dummyimage.com/229x144.png/ff4444/ffffff,2 Loftsgordon Crossing,Catamayo,,Ecuador
707,Yozio,http://ucla.edu,http://dummyimage.com/243x233.png/dddddd/000000,5 Del Sol Park,Cuispes,,Peru
708,Kazio,https://mayoclinic.com,http://dummyimage.com/191x213.png/ff4444/ffffff,153 Barnett Street,Saint Cloud,56372,United States
709,Bubblemix,https://time.com,http://dummyimage.com/230x174.png/dddddd/000000,3837 Kropf Place,São Paio Merelim,4700-837,Portugal
710,Livepath,http://rambler.ru,http://dummyimage.com/195x226.png/ff4444/ffffff,1 Montana Road,Huandiqiao,,China
711,Jaloo,https://nytimes.com,http://dummyimage.com/125x231.png/cc0000/ffffff,1 Sommers Hill,Mangaran,,Indonesia
712,Lajo,https://go.com,http://dummyimage.com/118x145.png/5fa2dd/ffffff,677 2nd Pass,Pindobaçu,44770-000,Brazil
713,Thoughtstorm,https://behance.net,http://dummyimage.com/204x155.png/5fa2dd/ffffff,04 Maryland Circle,Dalgān,,Iran
714,Browsebug,http://amazon.co.jp,http://dummyimage.com/137x100.png/dddddd/000000,59229 Arkansas Court,Xinmen,,China
715,Topicblab,http://zdnet.com,http://dummyimage.com/236x134.png/dddddd/000000,0988 Glendale Parkway,Pecka,507 82,Czech Republic
716,Aimbo,https://ycombinator.com,http://dummyimage.com/203x119.png/ff4444/ffffff,37150 Gina Pass,Boston,02283,United States
717,Brightbean,http://github.io,http://dummyimage.com/233x223.png/5fa2dd/ffffff,619 Mosinee Street,Mogotes,682509,Colombia
718,Voonix,http://simplemachines.org,http://dummyimage.com/215x146.png/dddddd/000000,92790 Village Green Junction,Balabag,5001,Philippines
719,Eare,https://rediff.com,http://dummyimage.com/140x224.png/ff4444/ffffff,7 Ohio Center,Tsiombe,,Madagascar
720,Miboo,https://deviantart.com,http://dummyimage.com/250x215.png/cc0000/ffffff,46870 Alpine Junction,Ostrožská Nová Ves,687 22,Czech Republic
721,Vidoo,http://independent.co.uk,http://dummyimage.com/210x164.png/dddddd/000000,29 Kedzie Plaza,Stockholm,112 40,Sweden
722,Youfeed,http://reddit.com,http://dummyimage.com/189x243.png/cc0000/ffffff,4750 Debra Street,Perpignan,66013 CEDEX 9,France
723,Cogibox,http://cnbc.com,http://dummyimage.com/174x174.png/5fa2dd/ffffff,4199 Tomscot Way,Halinów,05-074,Poland
724,Trudoo,http://ifeng.com,http://dummyimage.com/209x103.png/5fa2dd/ffffff,29802 Service Street,Nianqiao,,China
725,Livefish,https://wordpress.org,http://dummyimage.com/114x250.png/ff4444/ffffff,9369 Sheridan Road,Zhishan,,China
726,Camido,https://alibaba.com,http://dummyimage.com/172x234.png/cc0000/ffffff,510 Buhler Road,Suhong,,China
727,Twitterworks,http://freewebs.com,http://dummyimage.com/198x124.png/cc0000/ffffff,79392 Sachtjen Drive,Châteaurenard,13834 CEDEX,France
728,Kimia,http://army.mil,http://dummyimage.com/165x217.png/ff4444/ffffff,623 Donald Parkway,Cereté,230559,Colombia
729,Oyondu,https://topsy.com,http://dummyimage.com/100x134.png/cc0000/ffffff,0 Shopko Crossing,Jingxi,,China
730,Voonyx,https://gnu.org,http://dummyimage.com/210x115.png/cc0000/ffffff,69 Melvin Court,Shangdongjie,,China
731,Flashset,http://cafepress.com,http://dummyimage.com/124x245.png/dddddd/000000,456 Thompson Drive,Langxi,,China
732,Oyondu,https://wisc.edu,http://dummyimage.com/250x154.png/dddddd/000000,2063 Dapin Alley,Monte Patria,,Chile
733,Livefish,https://last.fm,http://dummyimage.com/136x126.png/cc0000/ffffff,1 Bay Point,Alenquer,2580-306,Portugal
734,Shufflester,https://sphinn.com,http://dummyimage.com/132x113.png/dddddd/000000,1871 Derek Parkway,Trasak,,Indonesia
735,Realcube,http://jigsy.com,http://dummyimage.com/249x240.png/ff4444/ffffff,1 Commercial Place,Rincón,10602,Dominican Republic
736,Katz,https://ca.gov,http://dummyimage.com/101x159.png/dddddd/000000,3199 Morning Park,Gornji Grad,3342,Slovenia
737,Tagfeed,https://purevolume.com,http://dummyimage.com/241x225.png/ff4444/ffffff,6009 Farragut Lane,Ribeiro,4520-712,Portugal
738,Quimm,http://prnewswire.com,http://dummyimage.com/110x108.png/ff4444/ffffff,1972 Jenna Parkway,Malianchuan,,China
739,Tagcat,https://usda.gov,http://dummyimage.com/180x195.png/dddddd/000000,83 Roth Way,Independencia,89888,Mexico
740,Oyope,https://biblegateway.com,http://dummyimage.com/196x210.png/dddddd/000000,8 Kings Street,Pervomayskoye,188855,Russia
741,Topiclounge,http://ed.gov,http://dummyimage.com/174x143.png/ff4444/ffffff,0 Veith Crossing,Cipari,,Indonesia
742,Realcube,http://is.gd,http://dummyimage.com/219x136.png/5fa2dd/ffffff,3315 Melrose Drive,Weda,,Indonesia
743,Topiclounge,http://booking.com,http://dummyimage.com/180x231.png/5fa2dd/ffffff,43 Utah Center,Tanjungbatu,,Indonesia
744,Eimbee,https://ustream.tv,http://dummyimage.com/150x241.png/dddddd/000000,1798 Cody Court,Gostovići,,Bosnia and Herzegovina
745,Agimba,http://netscape.com,http://dummyimage.com/200x156.png/ff4444/ffffff,6892 Granby Circle,Gushan,,China
746,Dabvine,https://feedburner.com,http://dummyimage.com/125x246.png/cc0000/ffffff,86612 Haas Point,La Foa,98880,New Caledonia
747,Meedoo,https://nbcnews.com,http://dummyimage.com/127x209.png/dddddd/000000,60 Red Cloud Avenue,Mrzezino,84-130,Poland
748,Agimba,http://pcworld.com,http://dummyimage.com/223x151.png/dddddd/000000,42 Farragut Park,Isdalstø,5914,Norway
749,Fadeo,http://narod.ru,http://dummyimage.com/106x161.png/ff4444/ffffff,329 Holy Cross Street,Birmingham,35215,United States
750,Dabtype,https://nifty.com,http://dummyimage.com/157x243.png/dddddd/000000,2489 Harper Pass,Skerries,K34,Ireland
751,Myworks,http://mlb.com,http://dummyimage.com/226x203.png/cc0000/ffffff,434 Lakeland Court,Kotsyubyns’ke,,Ukraine
752,Omba,https://ehow.com,http://dummyimage.com/197x191.png/5fa2dd/ffffff,58318 Redwing Place,Sidomulyo Kulon,,Indonesia
753,Devify,http://youtube.com,http://dummyimage.com/247x202.png/5fa2dd/ffffff,7777 Walton Place,Edineţ,MD-4734,Moldova
754,Lajo,https://mashable.com,http://dummyimage.com/161x216.png/5fa2dd/ffffff,08 Granby Road,Pueblo Nuevo,,Honduras
755,Yata,http://tiny.cc,http://dummyimage.com/243x144.png/ff4444/ffffff,25211 Kings Pass,Oeleon,,Indonesia
756,Skiba,https://ask.com,http://dummyimage.com/166x246.png/ff4444/ffffff,4281 Talisman Crossing,Tanrake Village,,Tuvalu
757,Tagfeed,https://amazon.co.jp,http://dummyimage.com/217x145.png/dddddd/000000,6706 Alpine Terrace,Paris La Défense,92041 CEDEX,France
758,Topicblab,https://g.co,http://dummyimage.com/106x124.png/cc0000/ffffff,583 Killdeer Court,Zhenzhushan,,China
759,Oloo,http://ucoz.com,http://dummyimage.com/159x233.png/cc0000/ffffff,2 Melby Junction,Engenheiro Beltrão,87270-000,Brazil
760,Yodel,http://amazonaws.com,http://dummyimage.com/116x190.png/dddddd/000000,324 Blue Bill Park Junction,Westonaria,1789,South Africa
761,Skipfire,http://scribd.com,http://dummyimage.com/118x168.png/ff4444/ffffff,685 Scoville Park,Dhahi,,Yemen
762,Quatz,https://washingtonpost.com,http://dummyimage.com/151x183.png/cc0000/ffffff,34662 Goodland Lane,Cabrela,7050-405,Portugal
763,Jazzy,http://reddit.com,http://dummyimage.com/139x135.png/5fa2dd/ffffff,8 Thierer Crossing,Iwata,925-0145,Japan
764,Kwinu,http://theguardian.com,http://dummyimage.com/157x230.png/dddddd/000000,8 Lyons Terrace,Fūman,,Iran
765,Skiptube,http://ask.com,http://dummyimage.com/208x133.png/dddddd/000000,41 3rd Park,Huddinge,141 21,Sweden
766,Devpulse,https://omniture.com,http://dummyimage.com/217x234.png/ff4444/ffffff,73585 Bayside Park,Lingdong,,China
767,Quimm,http://ted.com,http://dummyimage.com/210x181.png/ff4444/ffffff,4 School Place,Laau,,Indonesia
768,Avavee,http://sun.com,http://dummyimage.com/101x116.png/ff4444/ffffff,6212 Chive Plaza,Gniechowice,55-042,Poland
769,Tazz,https://google.com,http://dummyimage.com/157x229.png/cc0000/ffffff,66 Roth Park,Detroit,48232,United States
770,Voomm,https://xinhuanet.com,http://dummyimage.com/148x237.png/ff4444/ffffff,3448 Eagan Parkway,Sandaoba,,China
771,Quatz,http://ycombinator.com,http://dummyimage.com/189x195.png/5fa2dd/ffffff,8625 Hayes Court,Figueira dos Cavaleiros,7900-234,Portugal
772,Aimbu,http://bbc.co.uk,http://dummyimage.com/207x135.png/cc0000/ffffff,69958 Weeping Birch Place,Dolno Palčište,1219,Macedonia
773,Fadeo,http://foxnews.com,http://dummyimage.com/111x249.png/5fa2dd/ffffff,8234 Golf Course Avenue,Chełm,22-118,Poland
774,Vinte,https://edublogs.org,http://dummyimage.com/171x116.png/dddddd/000000,6 Oakridge Street,Batad,5016,Philippines
775,Kaymbo,http://domainmarket.com,http://dummyimage.com/133x139.png/5fa2dd/ffffff,98 Eagan Road,Ferdinandovac,48356,Croatia
776,Leenti,http://economist.com,http://dummyimage.com/112x112.png/5fa2dd/ffffff,45 Gulseth Point,Canhas,9360-305,Portugal
777,Quinu,http://bloglines.com,http://dummyimage.com/214x238.png/dddddd/000000,866 Ronald Regan Way,Hengling,,China
778,Twitterbeat,http://bbb.org,http://dummyimage.com/186x147.png/cc0000/ffffff,6115 Duke Pass,Chasŏng,,North Korea
779,Wordtune,https://soup.io,http://dummyimage.com/223x206.png/ff4444/ffffff,8 Union Terrace,Alacaygan,1212,Philippines
780,Lazz,http://hud.gov,http://dummyimage.com/111x213.png/cc0000/ffffff,804 Autumn Leaf Court,Nīshābūr,,Iran
781,Browsebug,https://parallels.com,http://dummyimage.com/171x149.png/ff4444/ffffff,54126 Westridge Way,Timiryazevo,,Kazakhstan
782,Photobean,https://qq.com,http://dummyimage.com/108x145.png/dddddd/000000,6 Blue Bill Park Pass,Ningshan Chengguanzhen,,China
783,Thoughtstorm,http://hud.gov,http://dummyimage.com/140x245.png/5fa2dd/ffffff,92696 Cherokee Court,Weekombaka,,Indonesia
784,Quamba,https://dion.ne.jp,http://dummyimage.com/244x205.png/5fa2dd/ffffff,47 Mandrake Road,Samho-rodongjagu,,North Korea
785,Browsezoom,https://apache.org,http://dummyimage.com/142x173.png/dddddd/000000,71 Oriole Junction,Zhaolingpu,,China
786,Eire,https://plala.or.jp,http://dummyimage.com/122x202.png/5fa2dd/ffffff,19952 Muir Lane,Edgeworthstown,E25,Ireland
787,Brightdog,http://youku.com,http://dummyimage.com/108x185.png/dddddd/000000,54 Stephen Parkway,Bucaramanga,680011,Colombia
788,Oyoba,https://sfgate.com,http://dummyimage.com/141x222.png/5fa2dd/ffffff,3 Sherman Avenue,Chonogol,,Mongolia
789,Myworks,http://wufoo.com,http://dummyimage.com/113x129.png/dddddd/000000,3 Pepper Wood Street,Jinchuan,,China
790,Oodoo,https://ow.ly,http://dummyimage.com/185x160.png/dddddd/000000,4959 Manley Trail,Babat,,Indonesia
791,Jabbertype,https://blinklist.com,http://dummyimage.com/147x139.png/5fa2dd/ffffff,24065 Kenwood Park,Jingxiyuan,,China
792,Yacero,http://vk.com,http://dummyimage.com/125x158.png/5fa2dd/ffffff,9 Lakewood Gardens Circle,Xiaozhi,,China
793,Abatz,https://homestead.com,http://dummyimage.com/173x154.png/5fa2dd/ffffff,32378 Elgar Road,San Juan Opico,,El Salvador
794,Kazio,https://godaddy.com,http://dummyimage.com/200x202.png/dddddd/000000,3051 Scoville Park,Tanshan,,China
795,Skaboo,http://github.com,http://dummyimage.com/120x130.png/dddddd/000000,43014 Sunbrook Crossing,Maungatapere,0179,New Zealand
796,Vipe,http://sun.com,http://dummyimage.com/242x164.png/5fa2dd/ffffff,00378 Karstens Terrace,Kardítsa,,Greece
797,Kayveo,http://ocn.ne.jp,http://dummyimage.com/167x250.png/cc0000/ffffff,088 Canary Road,Nusaherang,,Indonesia
798,Eayo,http://tumblr.com,http://dummyimage.com/145x227.png/5fa2dd/ffffff,39 Briar Crest Center,Weixin,,China
799,Tazz,http://twitpic.com,http://dummyimage.com/191x143.png/5fa2dd/ffffff,0010 Rutledge Parkway,Akita,480-0132,Japan
800,Jabbersphere,http://eventbrite.com,http://dummyimage.com/150x167.png/dddddd/000000,1 Carioca Place,Maceió,57000-000,Brazil
801,Kwinu,http://1688.com,http://dummyimage.com/118x239.png/dddddd/000000,490 Roxbury Pass,Mwaya,,Tanzania
802,Voonix,http://oakley.com,http://dummyimage.com/157x209.png/ff4444/ffffff,35 Roxbury Crossing,Koźmin Wielkopolski,63-720,Poland
803,Eadel,http://wp.com,http://dummyimage.com/244x123.png/5fa2dd/ffffff,9003 Hazelcrest Center,Saint Croix,00851,U.S. Virgin Islands
804,Devpoint,http://youku.com,http://dummyimage.com/129x177.png/cc0000/ffffff,6 Clove Parkway,Camias,2307,Philippines
805,Wordware,http://archive.org,http://dummyimage.com/229x153.png/ff4444/ffffff,2 Dixon Lane,Fengniancun,,China
806,Linkbridge,https://webnode.com,http://dummyimage.com/190x206.png/cc0000/ffffff,748 Stang Parkway,Jos,,Nigeria
807,Kanoodle,http://ovh.net,http://dummyimage.com/164x174.png/ff4444/ffffff,97 Vahlen Hill,Mokotów,05-090,Poland
808,Realcube,http://oracle.com,http://dummyimage.com/154x198.png/5fa2dd/ffffff,18095 Fair Oaks Plaza,Hongxi,,China
809,JumpXS,https://un.org,http://dummyimage.com/143x138.png/dddddd/000000,59663 Rieder Trail,Kaiaf,,Gambia
810,Trudoo,https://slideshare.net,http://dummyimage.com/197x225.png/ff4444/ffffff,0117 Packers Avenue,Tojeira,3270-152,Portugal
811,Browseblab,https://cnbc.com,http://dummyimage.com/147x113.png/5fa2dd/ffffff,60 Independence Crossing,Gombong,,Indonesia
812,Lazzy,http://utexas.edu,http://dummyimage.com/221x102.png/dddddd/000000,7 Eagan Circle,Orléans,45032 CEDEX 1,France
813,Kwilith,http://shareasale.com,http://dummyimage.com/223x158.png/dddddd/000000,34 Artisan Lane,Villa Castelli,5355,Argentina
814,Blognation,http://phpbb.com,http://dummyimage.com/118x231.png/5fa2dd/ffffff,292 Judy Trail,Alak,,Indonesia
815,Photospace,https://sciencedirect.com,http://dummyimage.com/184x250.png/cc0000/ffffff,1 Melody Parkway,Trelleborg,231 23,Sweden
816,Livetube,https://cloudflare.com,http://dummyimage.com/171x193.png/cc0000/ffffff,920 Knutson Park,Buenavista,55635,Mexico
817,Yoveo,https://drupal.org,http://dummyimage.com/226x150.png/ff4444/ffffff,24 Schurz Center,Washington,20420,United States
818,Trunyx,http://ning.com,http://dummyimage.com/139x144.png/dddddd/000000,775 Rieder Lane,Caminauit,2921,Philippines
819,Yambee,https://skype.com,http://dummyimage.com/142x200.png/5fa2dd/ffffff,35 Browning Junction,Huchang,,China
820,Linkbridge,https://bloomberg.com,http://dummyimage.com/150x149.png/dddddd/000000,43 Summerview Place,São Mateus do Maranhão,65470-000,Brazil
821,Jazzy,https://un.org,http://dummyimage.com/174x107.png/ff4444/ffffff,0 Bluejay Alley,Nakhabino,396072,Russia
822,Oyoloo,http://newyorker.com,http://dummyimage.com/189x122.png/5fa2dd/ffffff,793 Reindahl Parkway,Maykor,619184,Russia
823,Thoughtstorm,https://biblegateway.com,http://dummyimage.com/249x125.png/5fa2dd/ffffff,665 Moland Parkway,Ágios Andréas,,Greece
824,Voonder,http://opera.com,http://dummyimage.com/167x220.png/dddddd/000000,1 Surrey Circle,Litein,,Kenya
825,Trilith,http://un.org,http://dummyimage.com/223x110.png/5fa2dd/ffffff,7 Leroy Street,Landskrona,261 27,Sweden
826,Fanoodle,http://howstuffworks.com,http://dummyimage.com/230x204.png/5fa2dd/ffffff,48 Farragut Crossing,Srostki,659375,Russia
827,Demivee,http://redcross.org,http://dummyimage.com/214x234.png/ff4444/ffffff,47227 School Point,Fojo,4650-071,Portugal
828,BlogXS,https://com.com,http://dummyimage.com/206x156.png/dddddd/000000,2745 Montana Court,Nhà Bè,,Vietnam
829,Feedmix,http://bluehost.com,http://dummyimage.com/175x178.png/dddddd/000000,5 Fairview Place,Shamva,,Zimbabwe
830,Linklinks,https://dyndns.org,http://dummyimage.com/119x149.png/dddddd/000000,7115 Thierer Place,Chok Chai,30190,Thailand
831,Trupe,http://e-recht24.de,http://dummyimage.com/194x106.png/dddddd/000000,27 Rutledge Pass,Muang Phôn-Hông,,Laos
832,Wikivu,http://feedburner.com,http://dummyimage.com/152x226.png/cc0000/ffffff,43 Brentwood Center,Mahe,,China
833,Quaxo,https://devhub.com,http://dummyimage.com/188x245.png/ff4444/ffffff,4 Packers Center,Pampanito,,Venezuela
834,Jabberstorm,http://lycos.com,http://dummyimage.com/176x144.png/dddddd/000000,41 Schurz Circle,El Puente,,Honduras
835,Katz,https://hostgator.com,http://dummyimage.com/148x248.png/dddddd/000000,607 Sugar Terrace,Buzovna,,Azerbaijan
836,DabZ,https://usatoday.com,http://dummyimage.com/216x203.png/cc0000/ffffff,41518 Surrey Road,Verkhniye Achaluki,386338,Russia
837,Lajo,https://msn.com,http://dummyimage.com/219x249.png/5fa2dd/ffffff,34 Harper Hill,Santo Domingo,4508,Philippines
838,Thoughtsphere,http://spiegel.de,http://dummyimage.com/175x191.png/dddddd/000000,25063 Del Sol Alley,Sambongmulyo,,Indonesia
839,Youfeed,https://thetimes.co.uk,http://dummyimage.com/233x220.png/cc0000/ffffff,5 Arrowood Avenue,Luanshya,,Zambia
840,Mudo,https://nih.gov,http://dummyimage.com/124x232.png/ff4444/ffffff,946 Barnett Drive,Bahaodi,,China
841,Skyvu,http://imgur.com,http://dummyimage.com/243x230.png/cc0000/ffffff,15 Blue Bill Park Center,Pregradnaya,369264,Russia
842,Tazzy,http://tripod.com,http://dummyimage.com/151x186.png/cc0000/ffffff,008 Redwing Junction,Mueang Nonthaburi,11120,Thailand
843,Latz,http://bing.com,http://dummyimage.com/106x193.png/5fa2dd/ffffff,9077 Amoth Plaza,Ngrambitan,,Indonesia
844,Eazzy,http://bloglines.com,http://dummyimage.com/225x129.png/5fa2dd/ffffff,7 Lakewood Plaza,Charlotte,28289,United States
845,Pixope,https://yahoo.com,http://dummyimage.com/156x190.png/cc0000/ffffff,18909 Kedzie Street,Obong,2614,Philippines
846,Skipstorm,http://reddit.com,http://dummyimage.com/102x117.png/dddddd/000000,64 Randy Street,Babura,,Nigeria
847,Brainsphere,https://altervista.org,http://dummyimage.com/107x249.png/dddddd/000000,002 Dapin Place,Morondava,,Madagascar
848,Brainlounge,https://dropbox.com,http://dummyimage.com/250x143.png/5fa2dd/ffffff,054 Cottonwood Center,Diavatá,,Greece
849,Babbleblab,http://amazon.co.uk,http://dummyimage.com/125x244.png/5fa2dd/ffffff,5 Holmberg Street,Poitiers,86093 CEDEX 9,France
850,Bubblemix,http://cbc.ca,http://dummyimage.com/115x241.png/ff4444/ffffff,09 Eagle Crest Way,Risālpur,24081,Pakistan
851,Thoughtmix,http://bloglines.com,http://dummyimage.com/173x160.png/cc0000/ffffff,6 Nancy Street,Krzeczów,32-765,Poland
852,Topiczoom,https://ox.ac.uk,http://dummyimage.com/167x124.png/ff4444/ffffff,011 Sherman Trail,Sacramento,94297,United States
853,Fanoodle,http://omniture.com,http://dummyimage.com/197x196.png/dddddd/000000,064 Mallory Street,Moñitos,231008,Colombia
854,Gabtype,https://comcast.net,http://dummyimage.com/121x112.png/dddddd/000000,22890 Goodland Pass,Bessonovka,442780,Russia
855,Linkbuzz,http://blogger.com,http://dummyimage.com/166x102.png/cc0000/ffffff,423 Badeau Plaza,Dalududalu,,Indonesia
856,Topicware,https://blinklist.com,http://dummyimage.com/170x116.png/ff4444/ffffff,75 Utah Alley,Thị Trấn Quan Hóa,,Vietnam
857,Aimbo,https://github.io,http://dummyimage.com/105x167.png/cc0000/ffffff,1 4th Street,Kraśniczyn,22-310,Poland
858,Thoughtbridge,https://reference.com,http://dummyimage.com/117x249.png/ff4444/ffffff,43 Oxford Parkway,Villeta,253418,Colombia
859,Fivechat,https://wordpress.com,http://dummyimage.com/127x112.png/5fa2dd/ffffff,8 Sauthoff Park,Klang,41918,Malaysia
860,Yabox,http://amazon.de,http://dummyimage.com/249x188.png/dddddd/000000,95449 Superior Lane,Nakonde,,Zambia
861,Topicshots,https://yolasite.com,http://dummyimage.com/202x241.png/5fa2dd/ffffff,0849 Miller Circle,Joyabaj,14012,Guatemala
862,Twitterwire,http://flickr.com,http://dummyimage.com/182x111.png/5fa2dd/ffffff,41 Johnson Trail,Livramento do Brumado,46140-000,Brazil
863,Cogidoo,http://plala.or.jp,http://dummyimage.com/138x125.png/cc0000/ffffff,8373 Oak Valley Pass,Papetoai,,French Polynesia
864,Photolist,http://ebay.com,http://dummyimage.com/118x168.png/cc0000/ffffff,0 Pankratz Parkway,Mucuri,45930-000,Brazil
865,Lazz,http://desdev.cn,http://dummyimage.com/241x123.png/5fa2dd/ffffff,281 Hallows Parkway,Vale de Figueira,2695-584,Portugal
866,Youfeed,https://prnewswire.com,http://dummyimage.com/214x171.png/5fa2dd/ffffff,03005 Kenwood Hill,Toulouse,31079 CEDEX 5,France
867,Skajo,http://g.co,http://dummyimage.com/201x242.png/5fa2dd/ffffff,38857 Annamark Point,Sourotí,,Greece
868,Skyble,https://ucoz.ru,http://dummyimage.com/224x142.png/cc0000/ffffff,31 Corben Trail,Kantharalak,33110,Thailand
869,Oyoba,https://chronoengine.com,http://dummyimage.com/176x181.png/5fa2dd/ffffff,91821 Loeprich Point,Capela,4620-297,Portugal
870,Demimbu,http://issuu.com,http://dummyimage.com/139x249.png/dddddd/000000,1 Maple Terrace,Sulop,8009,Philippines
871,Wikizz,http://amazon.com,http://dummyimage.com/249x111.png/5fa2dd/ffffff,1 Fulton Way,Longkou,,China
872,Skynoodle,https://va.gov,http://dummyimage.com/115x213.png/ff4444/ffffff,49834 Northport Parkway,Qiqing,,China
873,Feedspan,https://bravesites.com,http://dummyimage.com/229x239.png/dddddd/000000,5325 Tomscot Pass,Horní Štěpánov,798 47,Czech Republic
874,Zava,http://phoca.cz,http://dummyimage.com/148x150.png/dddddd/000000,116 2nd Place,Peabiru,87250-000,Brazil
875,Dabfeed,http://sogou.com,http://dummyimage.com/231x221.png/dddddd/000000,05938 Stoughton Alley,Haiyangsuo,,China
876,Zoombeat,http://edublogs.org,http://dummyimage.com/222x237.png/5fa2dd/ffffff,71 Arrowood Lane,Huainan,,China
877,Quatz,http://yandex.ru,http://dummyimage.com/213x140.png/5fa2dd/ffffff,627 Harbort Street,Shuangfeng,,China
878,Voonder,http://weibo.com,http://dummyimage.com/223x147.png/5fa2dd/ffffff,70 Grasskamp Alley,Zastron,9951,South Africa
879,Skimia,http://blogs.com,http://dummyimage.com/107x247.png/ff4444/ffffff,0267 Summit Drive,Fécamp,76404 CEDEX,France
880,Kazu,http://diigo.com,http://dummyimage.com/102x225.png/cc0000/ffffff,788 Granby Avenue,Ombarade,,Indonesia
881,Wordify,http://omniture.com,http://dummyimage.com/231x223.png/ff4444/ffffff,1 Scoville Road,Chalaco,,Peru
882,Skalith,https://ustream.tv,http://dummyimage.com/203x213.png/5fa2dd/ffffff,1 Hintze Circle,Zhoujiadian,,China
883,Flipbug,http://ca.gov,http://dummyimage.com/214x170.png/dddddd/000000,2 Corry Point,La Garde,83953 CEDEX,France
884,Fivebridge,http://prnewswire.com,http://dummyimage.com/232x196.png/cc0000/ffffff,2 Loeprich Trail,Jiangyin,,China
885,Twimm,http://ebay.co.uk,http://dummyimage.com/134x185.png/dddddd/000000,58 Weeping Birch Terrace,Fengqiao,,China
886,Jayo,https://youku.com,http://dummyimage.com/178x173.png/5fa2dd/ffffff,2831 Mallard Plaza,Gombong,,Indonesia
887,Reallinks,https://simplemachines.org,http://dummyimage.com/233x208.png/dddddd/000000,60 Gale Park,Parigi,,Indonesia
888,Tagopia,https://4shared.com,http://dummyimage.com/249x189.png/dddddd/000000,9 Melvin Hill,Valado dos Frades,2450-305,Portugal
889,Twimm,https://google.ca,http://dummyimage.com/250x112.png/ff4444/ffffff,09203 Northfield Road,Samdo,,China
890,Tagfeed,https://t.co,http://dummyimage.com/116x248.png/dddddd/000000,06433 Pine View Avenue,Skaramangás,,Greece
891,Miboo,http://msu.edu,http://dummyimage.com/160x167.png/cc0000/ffffff,6851 Elmside Trail,Cirangkong,,Indonesia
892,Thoughtstorm,http://cbslocal.com,http://dummyimage.com/153x190.png/dddddd/000000,1078 Golf View Park,Itoman,901-0361,Japan
893,Quinu,https://apple.com,http://dummyimage.com/130x148.png/dddddd/000000,38129 Rigney Circle,Lazaro Cardenas,40977,Mexico
894,Demimbu,https://wikipedia.org,http://dummyimage.com/167x184.png/dddddd/000000,1 Washington Road,Cimo de Vila,3700-755,Portugal
895,Innotype,http://creativecommons.org,http://dummyimage.com/140x189.png/cc0000/ffffff,0 Mesta Road,Lau,,Nigeria
896,Fatz,http://macromedia.com,http://dummyimage.com/203x168.png/ff4444/ffffff,03 Monument Point,Fale old settlement,,Tokelau
897,Kamba,https://statcounter.com,http://dummyimage.com/225x136.png/5fa2dd/ffffff,76 Saint Paul Crossing,Kallithéa,,Greece
898,Talane,http://sogou.com,http://dummyimage.com/190x145.png/ff4444/ffffff,6625 Golden Leaf Junction,Issy-les-Moulineaux,92864 CEDEX 9,France
899,Pixope,http://chicagotribune.com,http://dummyimage.com/101x240.png/cc0000/ffffff,1674 Autumn Leaf Lane,Funafuti,,Tuvalu
900,Jabberstorm,http://fotki.com,http://dummyimage.com/240x169.png/ff4444/ffffff,76 Birchwood Street,Ticllos,,Peru
901,Quamba,http://howstuffworks.com,http://dummyimage.com/155x229.png/ff4444/ffffff,35 Harper Place,Ostroměř,507 52,Czech Republic
902,Gabtype,http://dailymotion.com,http://dummyimage.com/152x230.png/5fa2dd/ffffff,1102 Comanche Center,Xinglong,,China
903,Jatri,http://oakley.com,http://dummyimage.com/240x191.png/ff4444/ffffff,3 Buell Hill,Rubio,,Venezuela
904,Ntags,http://indiegogo.com,http://dummyimage.com/163x190.png/ff4444/ffffff,915 Oriole Park,Otuke,,Uganda
905,Jazzy,http://freewebs.com,http://dummyimage.com/202x138.png/5fa2dd/ffffff,193 Ridgeway Park,Nishor,,Kosovo
906,Dynava,https://netvibes.com,http://dummyimage.com/204x187.png/cc0000/ffffff,0870 Tennyson Point,Chorente,4755-121,Portugal
907,Twitterlist,https://netvibes.com,http://dummyimage.com/202x176.png/ff4444/ffffff,799 Lukken Lane,Cocabamba,,Peru
908,Gigashots,https://state.gov,http://dummyimage.com/199x213.png/dddddd/000000,3521 Oakridge Point,Anyang,,China
909,Skiba,http://uiuc.edu,http://dummyimage.com/128x170.png/ff4444/ffffff,32 Maryland Point,Fort Wayne,46852,United States
910,Dynabox,http://gizmodo.com,http://dummyimage.com/153x170.png/5fa2dd/ffffff,916 Grim Drive,Iquique,,Chile
911,Skimia,https://tinypic.com,http://dummyimage.com/109x105.png/ff4444/ffffff,460 Johnson Pass,Rukaj,,Albania
912,Flipopia,http://upenn.edu,http://dummyimage.com/148x108.png/dddddd/000000,3970 5th Way,San Rafael,5039,Philippines
913,Realpoint,http://walmart.com,http://dummyimage.com/127x112.png/dddddd/000000,8 Ramsey Terrace,Vrede,9850,South Africa
914,Yakijo,http://slashdot.org,http://dummyimage.com/109x100.png/cc0000/ffffff,5 Rockefeller Avenue,Seria,,Brunei
915,Twitternation,https://google.es,http://dummyimage.com/203x196.png/ff4444/ffffff,43 Del Mar Way,Kanaya,999-3103,Japan
916,Mudo,https://behance.net,http://dummyimage.com/149x247.png/dddddd/000000,0445 Steensland Way,Davydovo,142641,Russia
917,Livetube,https://phoca.cz,http://dummyimage.com/181x216.png/ff4444/ffffff,8 Glendale Pass,Rodnikovskaya,357565,Russia
918,Twitterbeat,http://si.edu,http://dummyimage.com/229x107.png/cc0000/ffffff,12 Loeprich Park,Uzunovo,142960,Russia
919,Skajo,http://cbsnews.com,http://dummyimage.com/140x131.png/dddddd/000000,2 Farwell Trail,Changqi,,China
920,Viva,https://illinois.edu,http://dummyimage.com/183x224.png/ff4444/ffffff,856 Moose Avenue,Ural,663974,Russia
921,Realbuzz,https://twitpic.com,http://dummyimage.com/250x233.png/ff4444/ffffff,46 Daystar Park,Wakkanai,763-0231,Japan
922,Gigashots,http://cdc.gov,http://dummyimage.com/217x223.png/dddddd/000000,99398 Clemons Avenue,San Diego,,Venezuela
923,Plambee,http://opera.com,http://dummyimage.com/198x167.png/cc0000/ffffff,59 Carey Avenue,Jequitinhonha,39960-000,Brazil
924,Flashdog,https://t.co,http://dummyimage.com/132x247.png/5fa2dd/ffffff,316 Porter Hill,Františkovy Lázně,351 01,Czech Republic
925,Divanoodle,http://edublogs.org,http://dummyimage.com/222x191.png/ff4444/ffffff,6 Eagan Center,Andongrejo,,Indonesia
926,Topicstorm,https://mapquest.com,http://dummyimage.com/248x118.png/dddddd/000000,81630 Chinook Court,Erie,16505,United States
927,Twinder,http://mozilla.org,http://dummyimage.com/132x177.png/5fa2dd/ffffff,8 Shasta Crossing,Chafé,4935-584,Portugal
928,Riffwire,https://wix.com,http://dummyimage.com/141x174.png/cc0000/ffffff,839 Union Center,Lourdes,1114,Philippines
929,Skiptube,http://omniture.com,http://dummyimage.com/180x228.png/cc0000/ffffff,512 Spohn Road,Chejiazhuang,,China
930,Oyoba,http://cyberchimps.com,http://dummyimage.com/146x135.png/dddddd/000000,77 Cambridge Way,Yeosu,,South Korea
931,Dynabox,https://google.es,http://dummyimage.com/108x224.png/ff4444/ffffff,82 Lukken Lane,Néa Mákri,,Greece
932,Mydo,https://freewebs.com,http://dummyimage.com/242x180.png/dddddd/000000,7413 Kipling Pass,Niyang,,China
933,Devify,https://dedecms.com,http://dummyimage.com/230x215.png/ff4444/ffffff,26 Blue Bill Park Trail,Tianjiazhai,,China
934,Jayo,https://ucoz.com,http://dummyimage.com/241x219.png/5fa2dd/ffffff,3 Boyd Alley,San Ramon,1658,Philippines
935,Flipopia,http://geocities.jp,http://dummyimage.com/141x237.png/cc0000/ffffff,053 Vermont Alley,Chengbei,,China
936,Edgepulse,https://slate.com,http://dummyimage.com/240x223.png/cc0000/ffffff,0759 Buell Terrace,Pule,,Indonesia
937,Youspan,http://homestead.com,http://dummyimage.com/241x120.png/5fa2dd/ffffff,6783 Briar Crest Way,Baranów,96-314,Poland
938,Photobug,https://printfriendly.com,http://dummyimage.com/174x163.png/cc0000/ffffff,98310 Johnson Point,Parapat,,Indonesia
939,Tavu,http://cbc.ca,http://dummyimage.com/215x230.png/5fa2dd/ffffff,361 Beilfuss Lane,Berlin,12683,Germany
940,Thoughtworks,https://samsung.com,http://dummyimage.com/166x181.png/dddddd/000000,329 Green Lane,Xiantang,,China
941,Npath,https://mac.com,http://dummyimage.com/239x130.png/dddddd/000000,333 Macpherson Trail,Xujia,,China
942,Bubblemix,https://abc.net.au,http://dummyimage.com/134x167.png/5fa2dd/ffffff,9593 Grover Place,San Rafael,58910,Mexico
943,Riffpedia,https://tripadvisor.com,http://dummyimage.com/111x151.png/ff4444/ffffff,6865 Northview Avenue,Aracruz,29190-000,Brazil
944,Gevee,http://apache.org,http://dummyimage.com/228x224.png/ff4444/ffffff,6496 Mockingbird Hill,Horní Bečva,756 57,Czech Republic
945,Twitterbridge,https://umich.edu,http://dummyimage.com/125x162.png/ff4444/ffffff,192 Stephen Circle,Bacuyangan,6114,Philippines
946,Eayo,https://lycos.com,http://dummyimage.com/188x117.png/cc0000/ffffff,70468 Corscot Road,Alençon,61042 CEDEX,France
947,Photobean,https://army.mil,http://dummyimage.com/214x163.png/ff4444/ffffff,6554 Del Sol Street,Santo Niño,6711,Philippines
948,Linktype,http://mac.com,http://dummyimage.com/225x227.png/dddddd/000000,9321 Bluejay Center,Shanjie,,China
949,Zoomcast,https://jugem.jp,http://dummyimage.com/184x165.png/cc0000/ffffff,01 Melrose Drive,Quzhou,,China
950,Flashpoint,https://tmall.com,http://dummyimage.com/114x162.png/dddddd/000000,31721 Ronald Regan Junction,Nevel’sk,694752,Russia
951,Skyble,http://oaic.gov.au,http://dummyimage.com/229x136.png/dddddd/000000,2028 Novick Park,Wangdain,,China
952,Blognation,http://hhs.gov,http://dummyimage.com/128x202.png/ff4444/ffffff,7 Thompson Drive,Almeria,6544,Philippines
953,Buzzster,https://ning.com,http://dummyimage.com/197x112.png/5fa2dd/ffffff,5 Transport Place,Kalipucang,,Indonesia
954,Teklist,http://hibu.com,http://dummyimage.com/200x226.png/5fa2dd/ffffff,39322 Hayes Terrace,Yunmenling,,China
955,Youopia,https://businessinsider.com,http://dummyimage.com/137x216.png/5fa2dd/ffffff,239 Sunnyside Crossing,Kissimmee,34745,United States
956,Oba,http://cornell.edu,http://dummyimage.com/135x187.png/dddddd/000000,88 Kropf Park,Cha-am,76120,Thailand
957,Avaveo,https://reddit.com,http://dummyimage.com/103x116.png/5fa2dd/ffffff,76 Bartillon Point,Dulangan,4113,Philippines
958,Flashpoint,http://berkeley.edu,http://dummyimage.com/193x139.png/dddddd/000000,35 Elgar Avenue,Babakansalam,,Indonesia
959,Photospace,http://wired.com,http://dummyimage.com/136x160.png/dddddd/000000,4 Ridge Oak Road,Qiulu,,China
960,Buzzshare,http://odnoklassniki.ru,http://dummyimage.com/226x170.png/5fa2dd/ffffff,56480 Duke Crossing,Verkhniy Kurkuzhin,361515,Russia
961,Realcube,http://exblog.jp,http://dummyimage.com/150x228.png/cc0000/ffffff,1 Graedel Plaza,Libertador General San Martín,4514,Argentina
962,Twinder,https://ebay.com,http://dummyimage.com/105x174.png/ff4444/ffffff,427 Holmberg Street,Dayr Dibwān,,Palestinian Territory
963,Blognation,https://homestead.com,http://dummyimage.com/237x150.png/ff4444/ffffff,607 Southridge Lane,São Sebastião,9700-602,Portugal
964,Ainyx,https://hhs.gov,http://dummyimage.com/188x220.png/dddddd/000000,74817 Dakota Terrace,Wydminy,11-510,Poland
965,Tagtune,http://tinyurl.com,http://dummyimage.com/124x192.png/cc0000/ffffff,85 Aberg Drive,Al Mazra‘ah ash Sharqīyah,,Palestinian Territory
966,Oyoloo,http://ed.gov,http://dummyimage.com/137x211.png/cc0000/ffffff,717 Thierer Trail,Kuala Pilah,72507,Malaysia
967,Buzzshare,https://tumblr.com,http://dummyimage.com/143x195.png/dddddd/000000,2 Clemons Way,Beolgyo,,South Korea
968,Jaxworks,http://discuz.net,http://dummyimage.com/194x217.png/cc0000/ffffff,7242 Hazelcrest Junction,Pereira,660017,Colombia
969,Thoughtworks,http://go.com,http://dummyimage.com/139x176.png/ff4444/ffffff,112 Truax Junction,Chone,,Ecuador
970,Twitterbridge,https://irs.gov,http://dummyimage.com/119x171.png/ff4444/ffffff,99575 Hoepker Terrace,Nanqiu,,China
971,Buzzbean,http://sohu.com,http://dummyimage.com/179x233.png/5fa2dd/ffffff,90569 Mallory Place,Ankaran,6000,Slovenia
972,Dablist,https://is.gd,http://dummyimage.com/228x153.png/dddddd/000000,82864 Daystar Lane,Suç,,Albania
973,Eimbee,http://google.nl,http://dummyimage.com/141x156.png/ff4444/ffffff,83355 Anniversary Junction,Velagići,,Bosnia and Herzegovina
974,Livefish,http://si.edu,http://dummyimage.com/240x160.png/cc0000/ffffff,4648 Shelley Alley,Utarapasar,,Indonesia
975,Yombu,http://phoca.cz,http://dummyimage.com/217x124.png/5fa2dd/ffffff,5 Darwin Junction,Sankwia,,Gambia
976,BlogXS,http://desdev.cn,http://dummyimage.com/189x131.png/ff4444/ffffff,6498 Delladonna Trail,Cluses,74304 CEDEX,France
977,Skivee,http://mashable.com,http://dummyimage.com/136x226.png/5fa2dd/ffffff,0895 Algoma Avenue,Anápolis,75000-000,Brazil
978,Yacero,http://ebay.co.uk,http://dummyimage.com/200x122.png/5fa2dd/ffffff,73 Acker Road,Camplong,,Indonesia
979,Wordify,http://wikipedia.org,http://dummyimage.com/109x231.png/dddddd/000000,3 Waubesa Trail,Caikouji,,China
980,Innojam,https://umn.edu,http://dummyimage.com/237x165.png/ff4444/ffffff,4689 Bayside Avenue,Linjiang,,China
981,Ntags,https://abc.net.au,http://dummyimage.com/149x180.png/cc0000/ffffff,5 Sheridan Point,Bacnotan,2515,Philippines
982,Devify,http://washingtonpost.com,http://dummyimage.com/194x189.png/dddddd/000000,5929 Dwight Court,Rancakuya,,Indonesia
983,Wordware,http://adobe.com,http://dummyimage.com/247x189.png/5fa2dd/ffffff,998 Jenna Circle,Buga,,Mongolia
984,Jabbercube,https://cargocollective.com,http://dummyimage.com/193x243.png/5fa2dd/ffffff,54086 Goodland Court,Kävlinge,244 24,Sweden
985,Avavee,http://amazonaws.com,http://dummyimage.com/194x107.png/ff4444/ffffff,4554 Randy Plaza,Waipare,,Indonesia
986,Jaxworks,http://goo.gl,http://dummyimage.com/214x180.png/dddddd/000000,910 Forest Dale Hill,Pulangbato,6711,Philippines
987,Katz,http://myspace.com,http://dummyimage.com/178x195.png/ff4444/ffffff,201 Victoria Place,Mezhdurechensk,652878,Russia
988,Kayveo,https://harvard.edu,http://dummyimage.com/148x212.png/dddddd/000000,68 Gina Terrace,Guanzhou,,China
989,Thoughtworks,http://posterous.com,http://dummyimage.com/124x109.png/ff4444/ffffff,17740 Dorton Park,Pianling,,China
990,Tazz,http://google.com,http://dummyimage.com/165x248.png/dddddd/000000,133 Heath Alley,Breda,4839,Netherlands
991,Fliptune,http://51.la,http://dummyimage.com/181x117.png/5fa2dd/ffffff,9 Clyde Gallagher Junction,Rantau,,Indonesia
992,Demivee,http://histats.com,http://dummyimage.com/250x140.png/ff4444/ffffff,14 Debs Center,West End,DN36,United Kingdom
993,Edgetag,https://ocn.ne.jp,http://dummyimage.com/158x232.png/ff4444/ffffff,75 Green Ridge Crossing,Baton Rouge,70820,United States
994,Dabtype,https://blogger.com,http://dummyimage.com/198x221.png/ff4444/ffffff,88778 Muir Junction,Naga,,Indonesia
995,Buzzdog,http://foxnews.com,http://dummyimage.com/193x200.png/cc0000/ffffff,8 Evergreen Pass,Sukamaju,,Indonesia
996,Eabox,https://techcrunch.com,http://dummyimage.com/248x237.png/cc0000/ffffff,778 Oriole Road,Nianyushan,,China
997,Skilith,http://t-online.de,http://dummyimage.com/190x153.png/5fa2dd/ffffff,516 Talisman Trail,Ghormach,,Afghanistan
998,Digitube,https://de.vu,http://dummyimage.com/239x219.png/cc0000/ffffff,4 Londonderry Alley,Kongjiafang,,China
999,Jabbersphere,https://salon.com,http://dummyimage.com/147x128.png/ff4444/ffffff,317 Stephen Court,Châtellerault,86104 CEDEX,France
1000,Aivee,http://imageshack.us,http://dummyimage.com/142x134.png/ff4444/ffffff,59824 Schlimgen Park,Caicedonia,762548,Colombia
